;FLAVOR:Marlin
;TIME:636
;Filament used: 0.461616m
;Layer height: 0.2
;MINX:160
;MINY:106
;MINZ:0.2
;MAXX:190
;MAXY:244
;MAXZ:2
;Generated with Cura_SteamEngine 4.8.0
M140 S60
M105
M190 S60
M104 S205
M105
M109 S205
M82 ;absolute extrusion mode
M201 X500.00 Y500.00 Z100.00 E5000.00 ;Setup machine max acceleration
M203 X500.00 Y500.00 Z10.00 E50.00 ;Setup machine max feedrate
M204 P500.00 R1000.00 T500.00 ;Setup Print/Retract/Travel acceleration
M205 X8.00 Y8.00 Z0.40 E5.00 ;Setup Jerk
M220 S100 ;Reset Feedrate
M221 S100 ;Reset Flowrate

G28 ;Home
M420 S1 Z2 ;Enable ABL using saved Mesh and Fade Height

G92 E0 ;Reset Extruder
G1 Z2.0 F3000 ;Move Z Axis up
G1 X10.1 Y20 Z0.28 F5000.0 ;Move to start position
G1 X10.1 Y200.0 Z0.28 F1500.0 E15 ;Draw the first line
G1 X10.4 Y200.0 Z0.28 F5000.0 ;Move to side a little
G1 X10.4 Y20 Z0.28 F1500.0 E30 ;Draw the second line
G92 E0 ;Reset Extruder
G1 Z2.0 F3000 ;Move Z Axis up

G92 E0
G92 E0
G1 F1440 E-1.5
;LAYER_COUNT:10
;LAYER:0
M107
G0 F6000 X161.996 Y110.703 Z0.2
;TYPE:SKIRT
G1 F1440 E0
G1 F1200 X162.566 Y109.958 E0.0312
G1 X163.198 Y109.264 E0.06242
G1 X163.886 Y108.627 E0.0936
G1 X164.626 Y108.051 E0.12479
G1 X165.412 Y107.539 E0.15599
G1 X166.239 Y107.097 E0.18718
G1 X167.101 Y106.727 E0.21838
G1 X167.991 Y106.431 E0.24958
G1 X168.903 Y106.213 E0.28077
G1 X169.83 Y106.072 E0.31195
G1 X170.701 Y106.013 E0.34099
G1 X171.022 Y106.004 E0.35167
G1 X171.33 Y106 E0.36191
G1 X178.293 Y106 E0.5935
G1 X179.149 Y106.011 E0.62198
G1 X180.085 Y106.065 E0.65316
G1 X181.013 Y106.197 E0.68434
G1 X181.927 Y106.409 E0.71554
G1 X182.819 Y106.698 E0.74673
G1 X183.684 Y107.061 E0.77793
G1 X184.514 Y107.497 E0.80911
G1 X185.305 Y108.002 E0.84033
G1 X186.049 Y108.573 E0.87152
G1 X186.742 Y109.205 E0.90271
G1 X187.379 Y109.893 E0.9339
G1 X187.954 Y110.634 E0.96509
G1 X188.465 Y111.42 E0.99628
G1 X188.907 Y112.248 E1.02749
G1 X189.276 Y113.11 E1.05868
G1 X189.571 Y114 E1.08987
G1 X189.789 Y114.912 E1.12105
G1 X189.929 Y115.84 E1.15227
G1 X189.987 Y116.701 E1.18097
G1 X189.996 Y117.021 E1.19162
G1 X190 Y117.33 E1.2019
G1 X189.999 Y232.4 E5.02914
G1 X189.99 Y233.127 E5.05332
G1 X189.939 Y234.064 E5.08453
G1 X189.807 Y234.992 E5.11571
G1 X189.598 Y235.906 E5.14689
G1 X189.311 Y236.799 E5.17809
G1 X188.949 Y237.665 E5.20931
G1 X188.515 Y238.496 E5.24049
G1 X188.011 Y239.287 E5.27169
G1 X187.442 Y240.032 E5.30287
G1 X186.811 Y240.727 E5.33409
G1 X186.124 Y241.365 E5.36527
G1 X185.385 Y241.942 E5.39645
G1 X184.599 Y242.454 E5.42765
G1 X183.773 Y242.897 E5.45883
G1 X182.911 Y243.269 E5.49005
G1 X182.022 Y243.565 E5.52122
G1 X181.11 Y243.785 E5.55242
G1 X180.183 Y243.926 E5.58361
G1 X179.299 Y243.987 E5.61308
G1 X178.978 Y243.996 E5.62376
G1 X178.67 Y244 E5.63401
G1 X171.565 Y243.999 E5.87032
G1 X170.867 Y243.99 E5.89354
G1 X169.931 Y243.938 E5.92472
G1 X169.002 Y243.806 E5.95593
G1 X168.088 Y243.596 E5.98712
G1 X167.195 Y243.309 E6.01832
G1 X166.33 Y242.946 E6.04952
G1 X165.499 Y242.512 E6.0807
G1 X164.708 Y242.008 E6.11189
G1 X163.963 Y241.438 E6.14309
G1 X163.269 Y240.807 E6.17429
G1 X162.632 Y240.12 E6.20545
G1 X162.055 Y239.38 E6.23666
G1 X161.543 Y238.594 E6.26786
G1 X161.1 Y237.767 E6.29906
G1 X160.729 Y236.906 E6.33025
G1 X160.433 Y236.016 E6.36144
G1 X160.214 Y235.104 E6.39264
G1 X160.073 Y234.177 E6.42382
G1 X160.013 Y233.288 E6.45346
G1 X160.004 Y232.955 E6.46454
G1 X160 Y232.658 E6.47442
G1 X160.001 Y117.525 E10.30376
G1 X160.01 Y116.86 E10.32588
G1 X160.063 Y115.924 E10.35706
G1 X160.195 Y114.995 E10.38827
G1 X160.406 Y114.081 E10.41947
G1 X160.694 Y113.189 E10.45064
G1 X161.057 Y112.324 E10.48184
G1 X161.492 Y111.493 E10.51304
G1 X161.996 Y110.703 E10.54421
G0 F6000 X162.392 Y110.835
G1 F1200 X162.961 Y110.111 E10.57484
G1 X163.589 Y109.439 E10.60543
G1 X164.274 Y108.823 E10.63607
G1 X165.01 Y108.27 E10.66669
G1 X165.791 Y107.782 E10.69732
G1 X166.611 Y107.364 E10.72793
G1 X167.465 Y107.019 E10.75856
G1 X168.345 Y106.749 E10.78918
G1 X169.245 Y106.557 E10.81979
G1 X170.159 Y106.443 E10.85042
G1 X170.712 Y106.413 E10.86884
G1 X171.033 Y106.404 E10.87952
G1 X171.33 Y106.4 E10.8894
G1 X178.293 Y106.4 E11.12099
G1 X179.143 Y106.411 E11.14927
G1 X180.062 Y106.464 E11.17988
G1 X180.973 Y106.597 E11.2105
G1 X181.869 Y106.808 E11.24112
G1 X182.743 Y107.096 E11.27173
G1 X183.59 Y107.459 E11.30238
G1 X184.401 Y107.894 E11.33299
G1 X185.171 Y108.398 E11.36359
G1 X185.895 Y108.967 E11.39422
G1 X186.567 Y109.597 E11.42486
G1 X187.182 Y110.282 E11.45548
G1 X187.735 Y111.018 E11.4861
G1 X188.222 Y111.799 E11.51671
G1 X188.639 Y112.62 E11.54734
G1 X188.984 Y113.474 E11.57797
G1 X189.253 Y114.354 E11.60858
G1 X189.445 Y115.255 E11.63922
G1 X189.558 Y116.168 E11.66981
G1 X189.587 Y116.712 E11.68793
G1 X189.596 Y117.032 E11.69858
G1 X189.6 Y117.33 E11.70849
G1 X189.599 Y232.395 E15.53557
G1 X189.59 Y233.122 E15.55975
G1 X189.539 Y234.041 E15.59037
G1 X189.408 Y234.953 E15.62101
G1 X189.198 Y235.849 E15.65162
G1 X188.912 Y236.724 E15.68224
G1 X188.551 Y237.571 E15.71286
G1 X188.117 Y238.383 E15.74348
G1 X187.615 Y239.155 E15.77411
G1 X187.047 Y239.88 E15.80474
G1 X186.419 Y240.553 E15.83536
G1 X185.735 Y241.169 E15.86598
G1 X185 Y241.723 E15.89659
G1 X184.22 Y242.212 E15.92721
G1 X183.4 Y242.631 E15.95784
G1 X182.547 Y242.977 E15.98845
G1 X181.667 Y243.248 E16.01908
G1 X180.767 Y243.441 E16.04969
G1 X179.853 Y243.556 E16.08033
G1 X179.288 Y243.587 E16.09915
G1 X178.967 Y243.596 E16.10983
G1 X178.67 Y243.6 E16.11971
G1 X171.57 Y243.599 E16.35586
G1 X170.872 Y243.59 E16.37908
G1 X169.953 Y243.538 E16.40969
G1 X169.042 Y243.407 E16.4403
G1 X168.146 Y243.197 E16.47091
G1 X167.271 Y242.91 E16.50154
G1 X166.424 Y242.548 E16.53218
G1 X165.612 Y242.114 E16.5628
G1 X164.841 Y241.612 E16.5934
G1 X164.116 Y241.044 E16.62403
G1 X163.443 Y240.415 E16.65467
G1 X162.828 Y239.731 E16.68526
G1 X162.274 Y238.996 E16.71588
G1 X161.786 Y238.215 E16.74651
G1 X161.367 Y237.395 E16.77713
G1 X161.021 Y236.542 E16.80775
G1 X160.751 Y235.662 E16.83837
G1 X160.558 Y234.761 E16.86901
G1 X160.444 Y233.848 E16.89961
G1 X160.413 Y233.277 E16.91863
G1 X160.404 Y232.944 E16.92971
G1 X160.4 Y232.658 E16.93923
G1 X160.401 Y117.531 E20.76837
G1 X160.41 Y116.866 E20.79049
G1 X160.462 Y115.946 E20.82113
G1 X160.594 Y115.035 E20.85175
G1 X160.805 Y114.139 E20.88237
G1 X161.092 Y113.264 E20.913
G1 X161.455 Y112.418 E20.94361
G1 X161.889 Y111.606 E20.97424
G1 X162.392 Y110.835 E21.00486
G0 F6000 X162.788 Y110.971
G1 F1200 X163.355 Y110.267 E21.03492
G1 X163.981 Y109.617 E21.06494
G1 X164.662 Y109.024 E21.09497
G1 X165.394 Y108.494 E21.12503
G1 X166.169 Y108.031 E21.15505
G1 X166.982 Y107.638 E21.18509
G1 X167.827 Y107.318 E21.21514
G1 X168.696 Y107.075 E21.24515
G1 X169.584 Y106.909 E21.2752
G1 X170.723 Y106.813 E21.31322
G1 X171.044 Y106.804 E21.3239
G1 X171.33 Y106.8 E21.33341
G1 X178.293 Y106.8 E21.565
G1 X179.137 Y106.811 E21.59307
G1 X180.039 Y106.864 E21.62313
G1 X180.932 Y106.996 E21.65315
G1 X181.81 Y107.207 E21.68319
G1 X182.666 Y107.495 E21.71322
G1 X183.493 Y107.857 E21.74325
G1 X184.285 Y108.292 E21.7733
G1 X185.036 Y108.794 E21.80335
G1 X185.739 Y109.361 E21.83339
G1 X186.389 Y109.988 E21.86343
G1 X186.981 Y110.67 E21.89346
G1 X187.511 Y111.401 E21.92349
G1 X187.973 Y112.177 E21.95353
G1 X188.366 Y112.99 E21.98357
G1 X188.684 Y113.835 E22.0136
G1 X188.927 Y114.705 E22.04364
G1 X189.092 Y115.593 E22.07368
G1 X189.187 Y116.723 E22.1114
G1 X189.196 Y117.043 E22.12204
G1 X189.2 Y117.33 E22.13159
G1 X189.199 Y232.39 E25.9585
G1 X189.19 Y233.117 E25.98268
G1 X189.139 Y234.019 E26.01273
G1 X189.008 Y234.913 E26.04278
G1 X188.799 Y235.791 E26.0728
G1 X188.513 Y236.648 E26.10285
G1 X188.152 Y237.476 E26.13289
G1 X187.72 Y238.268 E26.1629
G1 X187.219 Y239.02 E26.19295
G1 X186.653 Y239.724 E26.223
G1 X186.028 Y240.375 E26.25301
G1 X185.347 Y240.969 E26.28307
G1 X184.616 Y241.5 E26.31312
G1 X183.842 Y241.964 E26.34314
G1 X183.029 Y242.358 E26.37318
G1 X182.185 Y242.678 E26.40321
G1 X181.315 Y242.923 E26.43327
G1 X180.428 Y243.089 E26.46328
G1 X179.277 Y243.187 E26.5017
G1 X178.956 Y243.196 E26.51238
G1 X178.67 Y243.2 E26.5219
G1 X171.575 Y243.199 E26.75788
G1 X170.877 Y243.19 E26.78109
G1 X169.976 Y243.139 E26.81111
G1 X169.082 Y243.007 E26.84117
G1 X168.204 Y242.798 E26.87119
G1 X167.347 Y242.511 E26.90125
G1 X166.52 Y242.15 E26.93126
G1 X165.727 Y241.717 E26.96131
G1 X164.976 Y241.216 E26.99134
G1 X164.272 Y240.65 E27.02138
G1 X163.621 Y240.024 E27.05142
G1 X163.028 Y239.343 E27.08145
G1 X162.498 Y238.612 E27.11148
G1 X162.034 Y237.837 E27.14153
G1 X161.64 Y237.024 E27.17158
G1 X161.32 Y236.18 E27.2016
G1 X161.076 Y235.31 E27.23165
G1 X160.91 Y234.422 E27.2617
G1 X160.813 Y233.267 E27.30025
G1 X160.804 Y232.934 E27.31133
G1 X160.8 Y232.658 E27.32051
G1 X160.801 Y117.536 E31.14948
G1 X160.81 Y116.871 E31.1716
G1 X160.862 Y115.969 E31.20165
G1 X160.994 Y115.076 E31.23168
G1 X161.204 Y114.198 E31.2617
G1 X161.491 Y113.341 E31.29176
G1 X161.853 Y112.514 E31.32179
G1 X162.286 Y111.722 E31.35181
G1 X162.788 Y110.971 E31.38185
G1 F1440 E29.88185
;MESH:diffuser_support.stl
G0 F6000 X170.335 Y117.42
G0 X171.42 Y117.42
G0 X171.782 Y232.218
G0 X178.4 Y232.4
;TYPE:WALL-INNER
G1 F1440 E31.38185
G1 F1200 X171.6 Y232.4 E31.60802
G1 X171.6 Y117.6 E35.42629
G1 X178.4 Y117.6 E35.65245
G1 X178.4 Y232.4 E39.47072
G0 F6000 X178.8 Y232.8
;TYPE:WALL-OUTER
G1 F1200 X171.2 Y232.8 E39.7235
G1 X171.2 Y117.2 E43.56837
G1 X178.8 Y117.2 E43.82114
G1 X178.8 Y232.8 E47.66602
G0 F6000 X178.53 Y232.53
G0 X178.29 Y232.01
G0 X178.01 Y232.01
;TYPE:SKIN
G1 F1200 X171.99 Y232.01 E47.86624
G1 X171.99 Y117.99 E51.65856
G1 X178.01 Y117.99 E51.85879
G1 X178.01 Y232.01 E55.65111
G0 F6000 X178.29 Y232.01
G0 X172.452 Y232.29
G0 X172.452 Y231.848
G1 F1200 X172.149 Y231.546 E55.66534
G0 F6000 X172.149 Y230.98
G1 F1200 X173.017 Y231.848 E55.70617
G0 F6000 X173.583 Y231.848
G1 F1200 X172.149 Y230.414 E55.77362
G0 F6000 X172.149 Y229.849
G1 F1200 X174.149 Y231.848 E55.86767
G0 F6000 X174.714 Y231.848
G1 F1200 X172.149 Y229.283 E55.98832
G0 F6000 X172.149 Y228.717
G1 F1200 X175.28 Y231.848 E56.13559
G0 F6000 X175.846 Y231.848
G1 F1200 X172.149 Y228.152 E56.30946
G0 F6000 X172.149 Y227.586
G1 F1200 X176.411 Y231.848 E56.50993
G0 F6000 X176.977 Y231.848
G1 F1200 X172.149 Y227.02 E56.73703
G0 F6000 X172.149 Y226.455
G1 F1200 X177.543 Y231.848 E56.99072
G0 F6000 X177.85 Y231.59
G1 F1200 X172.149 Y225.889 E57.25888
G0 F6000 X172.149 Y225.323
G1 F1200 X177.85 Y231.024 E57.52704
G0 F6000 X177.85 Y230.458
G1 F1200 X172.149 Y224.758 E57.79517
G0 F6000 X172.149 Y224.192
G1 F1200 X177.85 Y229.893 E58.06333
G0 F6000 X177.85 Y229.327
G1 F1200 X172.149 Y223.626 E58.33149
G0 F6000 X172.149 Y223.061
G1 F1200 X177.85 Y228.761 E58.59962
G0 F6000 X177.85 Y228.196
G1 F1200 X172.149 Y222.495 E58.86778
G0 F6000 X172.149 Y221.929
G1 F1200 X177.85 Y227.63 E59.13593
G0 F6000 X177.85 Y227.064
G1 F1200 X172.149 Y221.364 E59.40407
G0 F6000 X172.149 Y220.798
G1 F1200 X177.85 Y226.499 E59.67223
G0 F6000 X177.85 Y225.933
G1 F1200 X172.149 Y220.232 E59.94038
G0 F6000 X172.149 Y219.666
G1 F1200 X177.85 Y225.367 E60.20854
G0 F6000 X177.85 Y224.801
G1 F1200 X172.149 Y219.101 E60.47668
G0 F6000 X172.149 Y218.535
G1 F1200 X177.85 Y224.236 E60.74483
G0 F6000 X177.85 Y223.67
G1 F1200 X172.149 Y217.969 E61.01299
G0 F6000 X172.149 Y217.404
G1 F1200 X177.85 Y223.104 E61.28112
G0 F6000 X177.85 Y222.539
G1 F1200 X172.149 Y216.838 E61.54928
G0 F6000 X172.149 Y216.272
G1 F1200 X177.85 Y221.973 E61.81744
G0 F6000 X177.85 Y221.407
G1 F1200 X172.149 Y215.707 E62.08557
G0 F6000 X172.149 Y215.141
G1 F1200 X177.85 Y220.842 E62.35373
G0 F6000 X177.85 Y220.276
G1 F1200 X172.149 Y214.575 E62.62189
G0 F6000 X172.149 Y214.01
G1 F1200 X177.85 Y219.71 E62.89002
G0 F6000 X177.85 Y219.145
G1 F1200 X172.149 Y213.444 E63.15818
G0 F6000 X172.149 Y212.878
G1 F1200 X177.85 Y218.579 E63.42634
G0 F6000 X177.85 Y218.013
G1 F1200 X172.149 Y212.313 E63.69447
G0 F6000 X172.149 Y211.747
G1 F1200 X177.85 Y217.448 E63.96263
G0 F6000 X177.85 Y216.882
G1 F1200 X172.149 Y211.181 E64.23079
G0 F6000 X172.149 Y210.615
G1 F1200 X177.85 Y216.316 E64.49894
G0 F6000 X177.85 Y215.751
G1 F1200 X172.149 Y210.05 E64.7671
G0 F6000 X172.149 Y209.484
G1 F1200 X177.85 Y215.185 E65.03526
G0 F6000 X177.85 Y214.619
G1 F1200 X172.149 Y208.918 E65.30342
G0 F6000 X172.149 Y208.353
G1 F1200 X177.85 Y214.053 E65.57155
G0 F6000 X177.85 Y213.488
G1 F1200 X172.149 Y207.787 E65.83971
G0 F6000 X172.149 Y207.221
G1 F1200 X177.85 Y212.922 E66.10787
G0 F6000 X177.85 Y212.356
G1 F1200 X172.149 Y206.656 E66.376
G0 F6000 X172.149 Y206.09
G1 F1200 X177.85 Y211.791 E66.64416
G0 F6000 X177.85 Y211.225
G1 F1200 X172.149 Y205.524 E66.91232
G0 F6000 X172.149 Y204.959
G1 F1200 X177.85 Y210.659 E67.18045
G0 F6000 X177.85 Y210.094
G1 F1200 X172.149 Y204.393 E67.44861
G0 F6000 X172.149 Y203.827
G1 F1200 X177.85 Y209.528 E67.71676
G0 F6000 X177.85 Y208.962
G1 F1200 X172.149 Y203.262 E67.9849
G0 F6000 X172.149 Y202.696
G1 F1200 X177.85 Y208.397 E68.25306
G0 F6000 X177.85 Y207.831
G1 F1200 X172.149 Y202.13 E68.52121
G0 F6000 X172.149 Y201.565
G1 F1200 X177.85 Y207.265 E68.78935
G0 F6000 X177.85 Y206.7
G1 F1200 X172.149 Y200.999 E69.05751
G0 F6000 X172.149 Y200.433
G1 F1200 X177.85 Y206.134 E69.32566
G0 F6000 X177.85 Y205.568
G1 F1200 X172.149 Y199.867 E69.59382
G0 F6000 X172.149 Y199.302
G1 F1200 X177.85 Y205.002 E69.86195
G0 F6000 X177.85 Y204.437
G1 F1200 X172.149 Y198.736 E70.13011
G0 F6000 X172.149 Y198.17
G1 F1200 X177.85 Y203.871 E70.39827
G0 F6000 X177.85 Y203.305
G1 F1200 X172.149 Y197.605 E70.6664
G0 F6000 X172.149 Y197.039
G1 F1200 X177.85 Y202.74 E70.93456
G0 F6000 X177.85 Y202.174
G1 F1200 X172.149 Y196.473 E71.20272
G0 F6000 X172.149 Y195.908
G1 F1200 X177.85 Y201.608 E71.47085
G0 F6000 X177.85 Y201.043
G1 F1200 X172.149 Y195.342 E71.73901
G0 F6000 X172.149 Y194.776
G1 F1200 X177.85 Y200.477 E72.00717
G0 F6000 X177.85 Y199.911
G1 F1200 X172.149 Y194.211 E72.2753
G0 F6000 X172.149 Y193.645
G1 F1200 X177.85 Y199.346 E72.54346
G0 F6000 X177.85 Y198.78
G1 F1200 X172.149 Y193.079 E72.81162
G0 F6000 X172.149 Y192.514
G1 F1200 X177.85 Y198.214 E73.07975
G0 F6000 X177.85 Y197.649
G1 F1200 X172.149 Y191.948 E73.34791
G0 F6000 X172.149 Y191.382
G1 F1200 X177.85 Y197.083 E73.61607
G0 F6000 X177.85 Y196.517
G1 F1200 X172.149 Y190.817 E73.8842
G0 F6000 X172.149 Y190.251
G1 F1200 X177.85 Y195.952 E74.15236
G0 F6000 X177.85 Y195.386
G1 F1200 X172.149 Y189.685 E74.42052
G0 F6000 X172.149 Y189.119
G1 F1200 X177.85 Y194.82 E74.68867
G0 F6000 X177.85 Y194.254
G1 F1200 X172.149 Y188.554 E74.95681
G0 F6000 X172.149 Y187.988
G1 F1200 X177.85 Y193.689 E75.22496
G0 F6000 X177.85 Y193.123
G1 F1200 X172.149 Y187.422 E75.49312
G0 F6000 X172.149 Y186.857
G1 F1200 X177.85 Y192.557 E75.76126
G0 F6000 X177.85 Y191.992
G1 F1200 X172.149 Y186.291 E76.02941
G0 F6000 X172.149 Y185.725
G1 F1200 X177.85 Y191.426 E76.29757
G0 F6000 X177.85 Y190.86
G1 F1200 X172.149 Y185.16 E76.56571
G0 F6000 X172.149 Y184.594
G1 F1200 X177.85 Y190.295 E76.83386
G0 F6000 X177.85 Y189.729
G1 F1200 X172.149 Y184.028 E77.10202
G0 F6000 X172.149 Y183.463
G1 F1200 X177.85 Y189.163 E77.37015
G0 F6000 X177.85 Y188.598
G1 F1200 X172.149 Y182.897 E77.63831
G0 F6000 X172.149 Y182.331
G1 F1200 X177.85 Y188.032 E77.90647
G0 F6000 X177.85 Y187.466
G1 F1200 X172.149 Y181.766 E78.1746
G0 F6000 X172.149 Y181.2
G1 F1200 X177.85 Y186.901 E78.44276
G0 F6000 X177.85 Y186.335
G1 F1200 X172.149 Y180.634 E78.71092
G0 F6000 X172.149 Y180.068
G1 F1200 X177.85 Y185.769 E78.97908
G0 F6000 X177.85 Y185.203
G1 F1200 X172.149 Y179.503 E79.24721
G0 F6000 X172.149 Y178.937
G1 F1200 X177.85 Y184.638 E79.51537
G0 F6000 X177.85 Y184.072
G1 F1200 X172.149 Y178.371 E79.78353
G0 F6000 X172.149 Y177.806
G1 F1200 X177.85 Y183.506 E80.05166
G0 F6000 X177.85 Y182.941
G1 F1200 X172.149 Y177.24 E80.31982
G0 F6000 X172.149 Y176.674
G1 F1200 X177.85 Y182.375 E80.58797
G0 F6000 X177.85 Y181.809
G1 F1200 X172.149 Y176.109 E80.85611
G0 F6000 X172.149 Y175.543
G1 F1200 X177.85 Y181.244 E81.12427
G0 F6000 X177.85 Y180.678
G1 F1200 X172.149 Y174.977 E81.39242
G0 F6000 X172.149 Y174.412
G1 F1200 X177.85 Y180.112 E81.66056
G0 F6000 X177.85 Y179.547
G1 F1200 X172.149 Y173.846 E81.92872
G0 F6000 X172.149 Y173.28
G1 F1200 X177.85 Y178.981 E82.19687
G0 F6000 X177.85 Y178.415
G1 F1200 X172.149 Y172.715 E82.46501
G0 F6000 X172.149 Y172.149
G1 F1200 X177.85 Y177.85 E82.73316
G0 F6000 X177.85 Y177.284
G1 F1200 X172.149 Y171.583 E83.00132
G0 F6000 X172.149 Y171.018
G1 F1200 X177.85 Y176.718 E83.26946
G0 F6000 X177.85 Y176.153
G1 F1200 X172.149 Y170.452 E83.53761
G0 F6000 X172.149 Y169.886
G1 F1200 X177.85 Y175.587 E83.80577
G0 F6000 X177.85 Y175.021
G1 F1200 X172.149 Y169.32 E84.07393
G0 F6000 X172.149 Y168.755
G1 F1200 X177.85 Y174.455 E84.34206
G0 F6000 X177.85 Y173.89
G1 F1200 X172.149 Y168.189 E84.61022
G0 F6000 X172.149 Y167.623
G1 F1200 X177.85 Y173.324 E84.87838
G0 F6000 X177.85 Y172.758
G1 F1200 X172.149 Y167.058 E85.14651
G0 F6000 X172.149 Y166.492
G1 F1200 X177.85 Y172.193 E85.41467
G0 F6000 X177.85 Y171.627
G1 F1200 X172.149 Y165.926 E85.68283
G0 F6000 X172.149 Y165.361
G1 F1200 X177.85 Y171.061 E85.95096
G0 F6000 X177.85 Y170.496
G1 F1200 X172.149 Y164.795 E86.21912
G0 F6000 X172.149 Y164.229
G1 F1200 X177.85 Y169.93 E86.48728
G0 F6000 X177.85 Y169.364
G1 F1200 X172.149 Y163.664 E86.75541
G0 F6000 X172.149 Y163.098
G1 F1200 X177.85 Y168.799 E87.02357
G0 F6000 X177.85 Y168.233
G1 F1200 X172.149 Y162.532 E87.29173
G0 F6000 X172.149 Y161.967
G1 F1200 X177.85 Y167.667 E87.55986
G0 F6000 X177.85 Y167.102
G1 F1200 X172.149 Y161.401 E87.82802
G0 F6000 X172.149 Y160.835
G1 F1200 X177.85 Y166.536 E88.09617
G0 F6000 X177.85 Y165.97
G1 F1200 X172.149 Y160.269 E88.36433
G0 F6000 X172.149 Y159.704
G1 F1200 X177.85 Y165.405 E88.63249
G0 F6000 X177.85 Y164.839
G1 F1200 X172.149 Y159.138 E88.90065
G0 F6000 X172.149 Y158.572
G1 F1200 X177.85 Y164.273 E89.16881
G0 F6000 X177.85 Y163.707
G1 F1200 X172.149 Y158.007 E89.43694
G0 F6000 X172.149 Y157.441
G1 F1200 X177.85 Y163.142 E89.7051
G0 F6000 X177.85 Y162.576
G1 F1200 X172.149 Y156.875 E89.97325
G0 F6000 X172.149 Y156.31
G1 F1200 X177.85 Y162.01 E90.24139
G0 F6000 X177.85 Y161.445
G1 F1200 X172.149 Y155.744 E90.50955
G0 F6000 X172.149 Y155.178
G1 F1200 X177.85 Y160.879 E90.7777
G0 F6000 X177.85 Y160.313
G1 F1200 X172.149 Y154.613 E91.04584
G0 F6000 X172.149 Y154.047
G1 F1200 X177.85 Y159.748 E91.314
G0 F6000 X177.85 Y159.182
G1 F1200 X172.149 Y153.481 E91.58215
G0 F6000 X172.149 Y152.916
G1 F1200 X177.85 Y158.616 E91.85029
G0 F6000 X177.85 Y158.051
G1 F1200 X172.149 Y152.35 E92.11844
G0 F6000 X172.149 Y151.784
G1 F1200 X177.85 Y157.485 E92.3866
G0 F6000 X177.85 Y156.919
G1 F1200 X172.149 Y151.219 E92.65474
G0 F6000 X172.149 Y150.653
G1 F1200 X177.85 Y156.354 E92.92289
G0 F6000 X177.85 Y155.788
G1 F1200 X172.149 Y150.087 E93.19105
G0 F6000 X172.149 Y149.521
G1 F1200 X177.85 Y155.222 E93.45921
G0 F6000 X177.85 Y154.656
G1 F1200 X172.149 Y148.956 E93.72734
G0 F6000 X172.149 Y148.39
G1 F1200 X177.85 Y154.091 E93.9955
G0 F6000 X177.85 Y153.525
G1 F1200 X172.149 Y147.824 E94.26366
G0 F6000 X172.149 Y147.259
G1 F1200 X177.85 Y152.959 E94.53179
G0 F6000 X177.85 Y152.394
G1 F1200 X172.149 Y146.693 E94.79995
G0 F6000 X172.149 Y146.127
G1 F1200 X177.85 Y151.828 E95.06811
G0 F6000 X177.85 Y151.262
G1 F1200 X172.149 Y145.562 E95.33624
G0 F6000 X172.149 Y144.996
G1 F1200 X177.85 Y150.697 E95.6044
G0 F6000 X177.85 Y150.131
G1 F1200 X172.149 Y144.43 E95.87256
G0 F6000 X172.149 Y143.865
G1 F1200 X177.85 Y149.565 E96.14069
G0 F6000 X177.85 Y149
G1 F1200 X172.149 Y143.299 E96.40885
G0 F6000 X172.149 Y142.733
G1 F1200 X177.85 Y148.434 E96.67701
G0 F6000 X177.85 Y147.868
G1 F1200 X172.149 Y142.168 E96.94514
G0 F6000 X172.149 Y141.602
G1 F1200 X177.85 Y147.303 E97.2133
G0 F6000 X177.85 Y146.737
G1 F1200 X172.149 Y141.036 E97.48145
G0 F6000 X172.149 Y140.471
G1 F1200 X177.85 Y146.171 E97.74959
G0 F6000 X177.85 Y145.606
G1 F1200 X172.149 Y139.905 E98.01775
G0 F6000 X172.149 Y139.339
G1 F1200 X177.85 Y145.04 E98.2859
G0 F6000 X177.85 Y144.474
G1 F1200 X172.149 Y138.773 E98.55406
G0 F6000 X172.149 Y138.208
G1 F1200 X177.85 Y143.908 E98.8222
G0 F6000 X177.85 Y143.343
G1 F1200 X172.149 Y137.642 E99.09035
G0 F6000 X172.149 Y137.076
G1 F1200 X177.85 Y142.777 E99.35851
G0 F6000 X177.85 Y142.211
G1 F1200 X172.149 Y136.511 E99.62664
G0 F6000 X172.149 Y135.945
G1 F1200 X177.85 Y141.646 E99.8948
G0 F6000 X177.85 Y141.08
G1 F1200 X172.149 Y135.379 E100.16296
G0 F6000 X172.149 Y134.814
G1 F1200 X177.85 Y140.514 E100.43109
G0 F6000 X177.85 Y139.949
G1 F1200 X172.149 Y134.248 E100.69925
G0 F6000 X172.149 Y133.682
G1 F1200 X177.85 Y139.383 E100.96741
G0 F6000 X177.85 Y138.817
G1 F1200 X172.149 Y133.117 E101.23554
G0 F6000 X172.149 Y132.551
G1 F1200 X177.85 Y138.252 E101.5037
G0 F6000 X177.85 Y137.686
G1 F1200 X172.149 Y131.985 E101.77186
G0 F6000 X172.149 Y131.42
G1 F1200 X177.85 Y137.12 E102.03999
G0 F6000 X177.85 Y136.555
G1 F1200 X172.149 Y130.854 E102.30815
G0 F6000 X172.149 Y130.288
G1 F1200 X177.85 Y135.989 E102.57631
G0 F6000 X177.85 Y135.423
G1 F1200 X172.149 Y129.722 E102.84446
G0 F6000 X172.149 Y129.157
G1 F1200 X177.85 Y134.857 E103.1126
G0 F6000 X177.85 Y134.292
G1 F1200 X172.149 Y128.591 E103.38076
G0 F6000 X172.149 Y128.025
G1 F1200 X177.85 Y133.726 E103.64891
G0 F6000 X177.85 Y133.16
G1 F1200 X172.149 Y127.46 E103.91705
G0 F6000 X172.149 Y126.894
G1 F1200 X177.85 Y132.595 E104.18521
G0 F6000 X177.85 Y132.029
G1 F1200 X172.149 Y126.328 E104.45336
G0 F6000 X172.149 Y125.763
G1 F1200 X177.85 Y131.463 E104.7215
G0 F6000 X177.85 Y130.898
G1 F1200 X172.149 Y125.197 E104.98965
G0 F6000 X172.149 Y124.631
G1 F1200 X177.85 Y130.332 E105.25781
G0 F6000 X177.85 Y129.766
G1 F1200 X172.149 Y124.066 E105.52595
G0 F6000 X172.149 Y123.5
G1 F1200 X177.85 Y129.201 E105.7941
G0 F6000 X177.85 Y128.635
G1 F1200 X172.149 Y122.934 E106.06226
G0 F6000 X172.149 Y122.369
G1 F1200 X177.85 Y128.069 E106.3304
G0 F6000 X177.85 Y127.504
G1 F1200 X172.149 Y121.803 E106.59855
G0 F6000 X172.149 Y121.237
G1 F1200 X177.85 Y126.938 E106.86671
G0 F6000 X177.85 Y126.372
G1 F1200 X172.149 Y120.672 E107.13484
G0 F6000 X172.149 Y120.106
G1 F1200 X177.85 Y125.807 E107.403
G0 F6000 X177.85 Y125.241
G1 F1200 X172.149 Y119.54 E107.67116
G0 F6000 X172.149 Y118.974
G1 F1200 X177.85 Y124.675 E107.93932
G0 F6000 X177.85 Y124.109
G1 F1200 X172.149 Y118.409 E108.20745
G0 F6000 X172.456 Y118.15
G1 F1200 X177.85 Y123.544 E108.46117
G0 F6000 X177.85 Y122.978
G1 F1200 X173.021 Y118.15 E108.68829
G0 F6000 X173.587 Y118.15
G1 F1200 X177.85 Y122.412 E108.88878
G0 F6000 X177.85 Y121.847
G1 F1200 X174.153 Y118.15 E109.06268
G0 F6000 X174.719 Y118.15
G1 F1200 X177.85 Y121.281 E109.20995
G0 F6000 X177.85 Y120.715
G1 F1200 X175.284 Y118.15 E109.33062
G0 F6000 X175.85 Y118.15
G1 F1200 X177.85 Y120.15 E109.4247
G0 F6000 X177.85 Y119.584
G1 F1200 X176.416 Y118.15 E109.49215
G0 F6000 X176.981 Y118.15
G1 F1200 X177.85 Y119.018 E109.533
G0 F6000 X177.85 Y118.453
G1 F1200 X177.547 Y118.15 E109.54725
G0 F6000 X177.547 Y117.8
G1 F1440 E108.04725
;MESH:NONMESH
G0 F300 X177.547 Y117.8 Z0.4
G0 F6000 X177.547 Y117.71
G0 X178.218 Y117.782
G0 X178.4 Y232.4
;TIME_ELAPSED:188.178042
;LAYER:1
M106 S85
;TYPE:WALL-INNER
;MESH:diffuser_support.stl
G1 F1440 E109.54725
G1 F1500 X171.6 Y232.4 E109.77342
G1 X171.6 Y117.6 E113.59168
G1 X178.4 Y117.6 E113.81785
G1 X178.4 Y232.4 E117.63612
G0 F7500 X178.8 Y232.8
;TYPE:WALL-OUTER
G1 F1500 X171.2 Y232.8 E117.88889
G1 X171.2 Y117.2 E121.73376
G1 X178.8 Y117.2 E121.98654
G1 X178.8 Y232.8 E125.83141
G0 F7500 X178.53 Y232.53
G0 X178.29 Y232.01
G0 X178.01 Y232.01
;TYPE:SKIN
G1 F1500 X171.99 Y232.01 E126.03164
G1 X171.99 Y117.99 E129.82396
G1 X178.01 Y117.99 E130.02419
G1 X178.01 Y232.01 E133.81651
G0 F7500 X177.706 Y231.849
G1 F1500 X177.849 Y231.706 E133.82323
G0 F7500 X177.849 Y231.141
G1 F1500 X177.14 Y231.849 E133.85656
G0 F7500 X176.575 Y231.849
G1 F1500 X177.849 Y230.575 E133.91648
G0 F7500 X177.849 Y230.009
G1 F1500 X176.009 Y231.849 E134.00303
G0 F7500 X175.443 Y231.849
G1 F1500 X177.849 Y229.444 E134.11618
G0 F7500 X177.849 Y228.878
G1 F1500 X174.878 Y231.849 E134.25593
G0 F7500 X174.312 Y231.849
G1 F1500 X177.849 Y228.312 E134.4223
G0 F7500 X177.849 Y227.747
G1 F1500 X173.746 Y231.849 E134.61526
G0 F7500 X173.181 Y231.849
G1 F1500 X177.849 Y227.181 E134.83483
G0 F7500 X177.849 Y226.615
G1 F1500 X172.615 Y231.849 E135.08102
G0 F7500 X172.15 Y231.749
G1 F1500 X177.849 Y226.05 E135.34909
G0 F7500 X177.849 Y225.484
G1 F1500 X172.15 Y231.183 E135.61715
G0 F7500 X172.15 Y230.617
G1 F1500 X177.849 Y224.918 E135.88521
G0 F7500 X177.849 Y224.352
G1 F1500 X172.15 Y230.052 E136.1533
G0 F7500 X172.15 Y229.486
G1 F1500 X177.849 Y223.787 E136.42136
G0 F7500 X177.849 Y223.221
G1 F1500 X172.15 Y228.92 E136.68943
G0 F7500 X172.15 Y228.355
G1 F1500 X177.849 Y222.655 E136.95752
G0 F7500 X177.849 Y222.09
G1 F1500 X172.15 Y227.789 E137.22558
G0 F7500 X172.15 Y227.223
G1 F1500 X177.849 Y221.524 E137.49364
G0 F7500 X177.849 Y220.958
G1 F1500 X172.15 Y226.658 E137.76173
G0 F7500 X172.15 Y226.092
G1 F1500 X177.849 Y220.393 E138.02979
G0 F7500 X177.849 Y219.827
G1 F1500 X172.15 Y225.526 E138.29786
G0 F7500 X172.15 Y224.961
G1 F1500 X177.849 Y219.261 E138.56594
G0 F7500 X177.849 Y218.696
G1 F1500 X172.15 Y224.395 E138.83401
G0 F7500 X172.15 Y223.829
G1 F1500 X177.849 Y218.13 E139.10207
G0 F7500 X177.849 Y217.564
G1 F1500 X172.15 Y223.264 E139.37016
G0 F7500 X172.15 Y222.698
G1 F1500 X177.849 Y216.999 E139.63822
G0 F7500 X177.849 Y216.433
G1 F1500 X172.15 Y222.132 E139.90628
G0 F7500 X172.15 Y221.566
G1 F1500 X177.849 Y215.867 E140.17435
G0 F7500 X177.849 Y215.301
G1 F1500 X172.15 Y221.001 E140.44243
G0 F7500 X172.15 Y220.435
G1 F1500 X177.849 Y214.736 E140.7105
G0 F7500 X177.849 Y214.17
G1 F1500 X172.15 Y219.869 E140.97856
G0 F7500 X172.15 Y219.304
G1 F1500 X177.849 Y213.604 E141.24665
G0 F7500 X177.849 Y213.039
G1 F1500 X172.15 Y218.738 E141.51471
G0 F7500 X172.15 Y218.172
G1 F1500 X177.849 Y212.473 E141.78278
G0 F7500 X177.849 Y211.907
G1 F1500 X172.15 Y217.607 E142.05086
G0 F7500 X172.15 Y217.041
G1 F1500 X177.849 Y211.342 E142.31893
G0 F7500 X177.849 Y210.776
G1 F1500 X172.15 Y216.475 E142.58699
G0 F7500 X172.15 Y215.91
G1 F1500 X177.849 Y210.21 E142.85508
G0 F7500 X177.849 Y209.645
G1 F1500 X172.15 Y215.344 E143.12314
G0 F7500 X172.15 Y214.778
G1 F1500 X177.849 Y209.079 E143.3912
G0 F7500 X177.849 Y208.513
G1 F1500 X172.15 Y214.213 E143.65929
G0 F7500 X172.15 Y213.647
G1 F1500 X177.849 Y207.948 E143.92735
G0 F7500 X177.849 Y207.382
G1 F1500 X172.15 Y213.081 E144.19542
G0 F7500 X172.15 Y212.515
G1 F1500 X177.849 Y206.816 E144.46348
G0 F7500 X177.849 Y206.251
G1 F1500 X172.15 Y211.95 E144.73154
G0 F7500 X172.15 Y211.384
G1 F1500 X177.849 Y205.685 E144.99961
G0 F7500 X177.849 Y205.119
G1 F1500 X172.15 Y210.818 E145.26767
G0 F7500 X172.15 Y210.253
G1 F1500 X177.849 Y204.553 E145.53576
G0 F7500 X177.849 Y203.988
G1 F1500 X172.15 Y209.687 E145.80382
G0 F7500 X172.15 Y209.121
G1 F1500 X177.849 Y203.422 E146.07189
G0 F7500 X177.849 Y202.856
G1 F1500 X172.15 Y208.556 E146.33997
G0 F7500 X172.15 Y207.99
G1 F1500 X177.849 Y202.291 E146.60804
G0 F7500 X177.849 Y201.725
G1 F1500 X172.15 Y207.424 E146.8761
G0 F7500 X172.15 Y206.859
G1 F1500 X177.849 Y201.159 E147.14419
G0 F7500 X177.849 Y200.594
G1 F1500 X172.15 Y206.293 E147.41225
G0 F7500 X172.15 Y205.727
G1 F1500 X177.849 Y200.028 E147.68031
G0 F7500 X177.849 Y199.462
G1 F1500 X172.15 Y205.162 E147.9484
G0 F7500 X172.15 Y204.596
G1 F1500 X177.849 Y198.897 E148.21646
G0 F7500 X177.849 Y198.331
G1 F1500 X172.15 Y204.03 E148.48453
G0 F7500 X172.15 Y203.465
G1 F1500 X177.849 Y197.765 E148.75261
G0 F7500 X177.849 Y197.2
G1 F1500 X172.15 Y202.899 E149.02068
G0 F7500 X172.15 Y202.333
G1 F1500 X177.849 Y196.634 E149.28874
G0 F7500 X177.849 Y196.068
G1 F1500 X172.15 Y201.767 E149.5568
G0 F7500 X172.15 Y201.202
G1 F1500 X177.849 Y195.503 E149.82487
G0 F7500 X177.849 Y194.937
G1 F1500 X172.15 Y200.636 E150.09293
G0 F7500 X172.15 Y200.07
G1 F1500 X177.849 Y194.371 E150.361
G0 F7500 X177.849 Y193.805
G1 F1500 X172.15 Y199.505 E150.62908
G0 F7500 X172.15 Y198.939
G1 F1500 X177.849 Y193.24 E150.89715
G0 F7500 X177.849 Y192.674
G1 F1500 X172.15 Y198.373 E151.16521
G0 F7500 X172.15 Y197.808
G1 F1500 X177.849 Y192.108 E151.4333
G0 F7500 X177.849 Y191.543
G1 F1500 X172.15 Y197.242 E151.70136
G0 F7500 X172.15 Y196.676
G1 F1500 X177.849 Y190.977 E151.96942
G0 F7500 X177.849 Y190.411
G1 F1500 X172.15 Y196.111 E152.23751
G0 F7500 X172.15 Y195.545
G1 F1500 X177.849 Y189.846 E152.50557
G0 F7500 X177.849 Y189.28
G1 F1500 X172.15 Y194.979 E152.77364
G0 F7500 X172.15 Y194.414
G1 F1500 X177.849 Y188.714 E153.04172
G0 F7500 X177.849 Y188.149
G1 F1500 X172.15 Y193.848 E153.30979
G0 F7500 X172.15 Y193.282
G1 F1500 X177.849 Y187.583 E153.57785
G0 F7500 X177.849 Y187.017
G1 F1500 X172.15 Y192.717 E153.84594
G0 F7500 X172.15 Y192.151
G1 F1500 X177.849 Y186.452 E154.114
G0 F7500 X177.849 Y185.886
G1 F1500 X172.15 Y191.585 E154.38207
G0 F7500 X172.15 Y191.019
G1 F1500 X177.849 Y185.32 E154.65013
G0 F7500 X177.849 Y184.754
G1 F1500 X172.15 Y190.454 E154.91822
G0 F7500 X172.15 Y189.888
G1 F1500 X177.849 Y184.189 E155.18628
G0 F7500 X177.849 Y183.623
G1 F1500 X172.15 Y189.322 E155.45434
G0 F7500 X172.15 Y188.757
G1 F1500 X177.849 Y183.057 E155.72243
G0 F7500 X177.849 Y182.492
G1 F1500 X172.15 Y188.191 E155.99049
G0 F7500 X172.15 Y187.625
G1 F1500 X177.849 Y181.926 E156.25856
G0 F7500 X177.849 Y181.36
G1 F1500 X172.15 Y187.06 E156.52664
G0 F7500 X172.15 Y186.494
G1 F1500 X177.849 Y180.795 E156.79471
G0 F7500 X177.849 Y180.229
G1 F1500 X172.15 Y185.928 E157.06277
G0 F7500 X172.15 Y185.363
G1 F1500 X177.849 Y179.663 E157.33086
G0 F7500 X177.849 Y179.098
G1 F1500 X172.15 Y184.797 E157.59892
G0 F7500 X172.15 Y184.231
G1 F1500 X177.849 Y178.532 E157.86698
G0 F7500 X177.849 Y177.966
G1 F1500 X172.15 Y183.666 E158.13507
G0 F7500 X172.15 Y183.1
G1 F1500 X177.849 Y177.401 E158.40314
G0 F7500 X177.849 Y176.835
G1 F1500 X172.15 Y182.534 E158.6712
G0 F7500 X172.15 Y181.968
G1 F1500 X177.849 Y176.269 E158.93926
G0 F7500 X177.849 Y175.704
G1 F1500 X172.15 Y181.403 E159.20733
G0 F7500 X172.15 Y180.837
G1 F1500 X177.849 Y175.138 E159.47539
G0 F7500 X177.849 Y174.572
G1 F1500 X172.15 Y180.271 E159.74345
G0 F7500 X172.15 Y179.706
G1 F1500 X177.849 Y174.006 E160.01154
G0 F7500 X177.849 Y173.441
G1 F1500 X172.15 Y179.14 E160.2796
G0 F7500 X172.15 Y178.574
G1 F1500 X177.849 Y172.875 E160.54767
G0 F7500 X177.849 Y172.309
G1 F1500 X172.15 Y178.009 E160.81575
G0 F7500 X172.15 Y177.443
G1 F1500 X177.849 Y171.744 E161.08382
G0 F7500 X177.849 Y171.178
G1 F1500 X172.15 Y176.877 E161.35188
G0 F7500 X172.15 Y176.312
G1 F1500 X177.849 Y170.612 E161.61997
G0 F7500 X177.849 Y170.047
G1 F1500 X172.15 Y175.746 E161.88803
G0 F7500 X172.15 Y175.18
G1 F1500 X177.849 Y169.481 E162.15609
G0 F7500 X177.849 Y168.915
G1 F1500 X172.15 Y174.615 E162.42418
G0 F7500 X172.15 Y174.049
G1 F1500 X177.849 Y168.35 E162.69225
G0 F7500 X177.849 Y167.784
G1 F1500 X172.15 Y173.483 E162.96031
G0 F7500 X172.15 Y172.918
G1 F1500 X177.849 Y167.218 E163.2284
G0 F7500 X177.849 Y166.653
G1 F1500 X172.15 Y172.352 E163.49646
G0 F7500 X172.15 Y171.786
G1 F1500 X177.849 Y166.087 E163.76452
G0 F7500 X177.849 Y165.521
G1 F1500 X172.15 Y171.22 E164.03259
G0 F7500 X172.15 Y170.655
G1 F1500 X177.849 Y164.955 E164.30067
G0 F7500 X177.849 Y164.39
G1 F1500 X172.15 Y170.089 E164.56874
G0 F7500 X172.15 Y169.523
G1 F1500 X177.849 Y163.824 E164.8368
G0 F7500 X177.849 Y163.258
G1 F1500 X172.15 Y168.958 E165.10489
G0 F7500 X172.15 Y168.392
G1 F1500 X177.849 Y162.693 E165.37295
G0 F7500 X177.849 Y162.127
G1 F1500 X172.15 Y167.826 E165.64101
G0 F7500 X172.15 Y167.261
G1 F1500 X177.849 Y161.561 E165.9091
G0 F7500 X177.849 Y160.996
G1 F1500 X172.15 Y166.695 E166.17716
G0 F7500 X172.15 Y166.129
G1 F1500 X177.849 Y160.43 E166.44523
G0 F7500 X177.849 Y159.864
G1 F1500 X172.15 Y165.564 E166.71332
G0 F7500 X172.15 Y164.998
G1 F1500 X177.849 Y159.299 E166.98138
G0 F7500 X177.849 Y158.733
G1 F1500 X172.15 Y164.432 E167.24944
G0 F7500 X172.15 Y163.867
G1 F1500 X177.849 Y158.167 E167.51753
G0 F7500 X177.849 Y157.602
G1 F1500 X172.15 Y163.301 E167.78559
G0 F7500 X172.15 Y162.735
G1 F1500 X177.849 Y157.036 E168.05366
G0 F7500 X177.849 Y156.47
G1 F1500 X172.15 Y162.169 E168.32172
G0 F7500 X172.15 Y161.604
G1 F1500 X177.849 Y155.905 E168.58978
G0 F7500 X177.849 Y155.339
G1 F1500 X172.15 Y161.038 E168.85785
G0 F7500 X172.15 Y160.472
G1 F1500 X177.849 Y154.773 E169.12591
G0 F7500 X177.849 Y154.207
G1 F1500 X172.15 Y159.907 E169.394
G0 F7500 X172.15 Y159.341
G1 F1500 X177.849 Y153.642 E169.66206
G0 F7500 X177.849 Y153.076
G1 F1500 X172.15 Y158.775 E169.93012
G0 F7500 X172.15 Y158.21
G1 F1500 X177.849 Y152.51 E170.19821
G0 F7500 X177.849 Y151.945
G1 F1500 X172.15 Y157.644 E170.46627
G0 F7500 X172.15 Y157.078
G1 F1500 X177.849 Y151.379 E170.73434
G0 F7500 X177.849 Y150.813
G1 F1500 X172.15 Y156.513 E171.00242
G0 F7500 X172.15 Y155.947
G1 F1500 X177.849 Y150.248 E171.27049
G0 F7500 X177.849 Y149.682
G1 F1500 X172.15 Y155.381 E171.53855
G0 F7500 X172.15 Y154.816
G1 F1500 X177.849 Y149.116 E171.80664
G0 F7500 X177.849 Y148.551
G1 F1500 X172.15 Y154.25 E172.0747
G0 F7500 X172.15 Y153.684
G1 F1500 X177.849 Y147.985 E172.34277
G0 F7500 X177.849 Y147.419
G1 F1500 X172.15 Y153.119 E172.61085
G0 F7500 X172.15 Y152.553
G1 F1500 X177.849 Y146.854 E172.87892
G0 F7500 X177.849 Y146.288
G1 F1500 X172.15 Y151.987 E173.14698
G0 F7500 X172.15 Y151.421
G1 F1500 X177.849 Y145.722 E173.41504
G0 F7500 X177.849 Y145.157
G1 F1500 X172.15 Y150.856 E173.68311
G0 F7500 X172.15 Y150.29
G1 F1500 X177.849 Y144.591 E173.95117
G0 F7500 X177.849 Y144.025
G1 F1500 X172.15 Y149.724 E174.21923
G0 F7500 X172.15 Y149.159
G1 F1500 X177.849 Y143.459 E174.48732
G0 F7500 X177.849 Y142.894
G1 F1500 X172.15 Y148.593 E174.75538
G0 F7500 X172.15 Y148.027
G1 F1500 X177.849 Y142.328 E175.02345
G0 F7500 X177.849 Y141.762
G1 F1500 X172.15 Y147.462 E175.29153
G0 F7500 X172.15 Y146.896
G1 F1500 X177.849 Y141.197 E175.5596
G0 F7500 X177.849 Y140.631
G1 F1500 X172.15 Y146.33 E175.82766
G0 F7500 X172.15 Y145.765
G1 F1500 X177.849 Y140.065 E176.09575
G0 F7500 X177.849 Y139.5
G1 F1500 X172.15 Y145.199 E176.36381
G0 F7500 X172.15 Y144.633
G1 F1500 X177.849 Y138.934 E176.63188
G0 F7500 X177.849 Y138.368
G1 F1500 X172.15 Y144.068 E176.89996
G0 F7500 X172.15 Y143.502
G1 F1500 X177.849 Y137.803 E177.16803
G0 F7500 X177.849 Y137.237
G1 F1500 X172.15 Y142.936 E177.43609
G0 F7500 X172.15 Y142.371
G1 F1500 X177.849 Y136.671 E177.70418
G0 F7500 X177.849 Y136.106
G1 F1500 X172.15 Y141.805 E177.97224
G0 F7500 X172.15 Y141.239
G1 F1500 X177.849 Y135.54 E178.2403
G0 F7500 X177.849 Y134.974
G1 F1500 X172.15 Y140.673 E178.50837
G0 F7500 X172.15 Y140.108
G1 F1500 X177.849 Y134.408 E178.77645
G0 F7500 X177.849 Y133.843
G1 F1500 X172.15 Y139.542 E179.04452
G0 F7500 X172.15 Y138.976
G1 F1500 X177.849 Y133.277 E179.31258
G0 F7500 X177.849 Y132.711
G1 F1500 X172.15 Y138.411 E179.58067
G0 F7500 X172.15 Y137.845
G1 F1500 X177.849 Y132.146 E179.84873
G0 F7500 X177.849 Y131.58
G1 F1500 X172.15 Y137.279 E180.1168
G0 F7500 X172.15 Y136.714
G1 F1500 X177.849 Y131.014 E180.38488
G0 F7500 X177.849 Y130.449
G1 F1500 X172.15 Y136.148 E180.65295
G0 F7500 X172.15 Y135.582
G1 F1500 X177.849 Y129.883 E180.92101
G0 F7500 X177.849 Y129.317
G1 F1500 X172.15 Y135.017 E181.1891
G0 F7500 X172.15 Y134.451
G1 F1500 X177.849 Y128.752 E181.45716
G0 F7500 X177.849 Y128.186
G1 F1500 X172.15 Y133.885 E181.72522
G0 F7500 X172.15 Y133.32
G1 F1500 X177.849 Y127.62 E181.99331
G0 F7500 X177.849 Y127.055
G1 F1500 X172.15 Y132.754 E182.26137
G0 F7500 X172.15 Y132.188
G1 F1500 X177.849 Y126.489 E182.52944
G0 F7500 X177.849 Y125.923
G1 F1500 X172.15 Y131.622 E182.7975
G0 F7500 X172.15 Y131.057
G1 F1500 X177.849 Y125.358 E183.06556
G0 F7500 X177.849 Y124.792
G1 F1500 X172.15 Y130.491 E183.33363
G0 F7500 X172.15 Y129.925
G1 F1500 X177.849 Y124.226 E183.60169
G0 F7500 X177.849 Y123.66
G1 F1500 X172.15 Y129.36 E183.86978
G0 F7500 X172.15 Y128.794
G1 F1500 X177.849 Y123.095 E184.13784
G0 F7500 X177.849 Y122.529
G1 F1500 X172.15 Y128.228 E184.4059
G0 F7500 X172.15 Y127.663
G1 F1500 X177.849 Y121.963 E184.67399
G0 F7500 X177.849 Y121.398
G1 F1500 X172.15 Y127.097 E184.94206
G0 F7500 X172.15 Y126.531
G1 F1500 X177.849 Y120.832 E185.21012
G0 F7500 X177.849 Y120.266
G1 F1500 X172.15 Y125.966 E185.47821
G0 F7500 X172.15 Y125.4
G1 F1500 X177.849 Y119.701 E185.74627
G0 F7500 X177.849 Y119.135
G1 F1500 X172.15 Y124.834 E186.01433
G0 F7500 X172.15 Y124.269
G1 F1500 X177.849 Y118.569 E186.28242
G0 F7500 X177.703 Y118.149
G1 F1500 X172.15 Y123.703 E186.54364
G0 F7500 X172.15 Y123.137
G1 F1500 X177.138 Y118.149 E186.77826
G0 F7500 X176.572 Y118.149
G1 F1500 X172.15 Y122.572 E186.98628
G0 F7500 X172.15 Y122.006
G1 F1500 X176.006 Y118.149 E187.16768
G0 F7500 X175.44 Y118.149
G1 F1500 X172.15 Y121.44 E187.32245
G0 F7500 X172.15 Y120.874
G1 F1500 X174.875 Y118.149 E187.45063
G0 F7500 X174.309 Y118.149
G1 F1500 X172.15 Y120.309 E187.55221
G0 F7500 X172.15 Y119.743
G1 F1500 X173.743 Y118.149 E187.62716
G0 F7500 X173.178 Y118.149
G1 F1500 X172.15 Y119.177 E187.67551
G0 F7500 X172.15 Y118.612
G1 F1500 X172.612 Y118.149 E187.69727
G0 F7500 X172.612 Y117.8
G1 F1440 E186.19727
;MESH:NONMESH
G0 F300 X172.612 Y117.8 Z0.6
G0 F7500 X172.612 Y117.71
G0 X178.218 Y117.782
G0 X178.4 Y232.4
;TIME_ELAPSED:300.953072
;LAYER:2
M106 S170
;TYPE:WALL-INNER
;MESH:diffuser_support.stl
G1 F1440 E187.69727
G1 F1800 X171.6 Y232.4 E187.92344
G1 X171.6 Y117.6 E191.7417
G1 X178.4 Y117.6 E191.96787
G1 X178.4 Y232.4 E195.78613
G0 F9000 X178.8 Y232.8
;TYPE:WALL-OUTER
G1 F1800 X171.2 Y232.8 E196.03891
G1 X171.2 Y117.2 E199.88378
G1 X178.8 Y117.2 E200.13656
G1 X178.8 Y232.8 E203.98143
G0 F9000 X178.53 Y232.53
G0 X176.35 Y232.319
;TYPE:FILL
G1 F3600 X171.679 Y227.648 E204.20114
G0 F9000 X171.679 Y217.739
G1 F3600 X178.319 Y215.96 E204.42978
G0 F9000 X178.32 Y206.004
G1 F3600 X171.679 Y199.364 E204.74212
G0 F9000 X171.679 Y197.033
G1 F3600 X178.319 Y195.254 E204.97076
G0 F9000 X171.679 Y185.753
G1 F3600 X178.319 Y160.972 E205.82405
G0 F9000 X178.319 Y153.843
G1 F3600 X171.679 Y155.622 E206.05269
G0 F9000 X178.319 Y149.435
G1 F3600 X171.679 Y142.795 E206.36502
G0 F9000 X171.679 Y134.917
G1 F3600 X178.318 Y133.138 E206.59362
G0 F9000 X178.319 Y121.151
G1 F3600 X174.848 Y117.68 E206.75689
G1 F1440 E205.25689
G0 F9000 X171.679 Y171.079
G1 F1440 E206.75689
G1 F3600 X178.32 Y177.72 E207.06926
G0 F9000 X178.319 Y174.549
G1 F3600 X171.679 Y176.328 E207.29789
G0 F9000 X171.8 Y176.328
G1 F1440 E205.79789
;MESH:NONMESH
G0 F300 X171.8 Y176.328 Z0.8
G0 F9000 X178.4 Y232.4
;TIME_ELAPSED:324.149182
;LAYER:3
M106 S255
;TYPE:WALL-INNER
;MESH:diffuser_support.stl
G1 F1440 E207.29789
G1 F1800 X171.6 Y232.4 E207.52406
G1 X171.6 Y117.6 E211.34233
G1 X178.4 Y117.6 E211.5685
G1 X178.4 Y232.4 E215.38676
G0 F9000 X178.8 Y232.8
;TYPE:WALL-OUTER
G1 F1800 X171.2 Y232.8 E215.63954
G1 X171.2 Y117.2 E219.48441
G1 X178.8 Y117.2 E219.73719
G1 X178.8 Y232.8 E223.58206
G0 F9000 X178.53 Y232.53
G0 X176.549 Y232.319
;TYPE:FILL
G1 F3600 X171.679 Y227.449 E223.81113
G0 F9000 X171.679 Y217.885
G1 F3600 X178.319 Y216.106 E224.03976
G0 F9000 X178.32 Y205.805
G1 F3600 X171.679 Y199.165 E224.35211
G0 F9000 X171.679 Y197.179
G1 F3600 X178.319 Y195.4 E224.58075
G0 F9000 X171.679 Y185.208
G1 F3600 X178.319 Y160.427 E225.43404
G0 F9000 X178.319 Y153.989
G1 F3600 X171.679 Y155.768 E225.66268
G0 F9000 X178.319 Y149.236
G1 F3600 X171.679 Y142.595 E225.97503
G0 F9000 X171.679 Y135.063
G1 F3600 X178.319 Y133.284 E226.20366
G0 F9000 X178.319 Y120.952
G1 F3600 X175.047 Y117.68 E226.35757
G1 F1440 E224.85757
G0 F9000 X171.679 Y170.88
G1 F1440 E226.35757
G1 F3600 X178.32 Y177.521 E226.66994
G0 F9000 X178.319 Y174.695
G1 F3600 X171.679 Y176.474 E226.89858
G0 F9000 X171.8 Y176.474
G1 F1440 E225.39858
;MESH:NONMESH
G0 F300 X171.8 Y176.474 Z1
G0 F9000 X178.4 Y232.4
;TIME_ELAPSED:347.314413
;LAYER:4
;TYPE:WALL-INNER
;MESH:diffuser_support.stl
G1 F1440 E226.89858
G1 F1800 X171.6 Y232.4 E227.12475
G1 X171.6 Y117.6 E230.94301
G1 X178.4 Y117.6 E231.16918
G1 X178.4 Y232.4 E234.98744
G0 F9000 X178.8 Y232.8
;TYPE:WALL-OUTER
G1 F1800 X171.2 Y232.8 E235.24022
G1 X171.2 Y117.2 E239.08509
G1 X178.8 Y117.2 E239.33787
G1 X178.8 Y232.8 E243.18274
G0 F9000 X178.53 Y232.53
G0 X176.75 Y232.319
;TYPE:FILL
G1 F3600 X171.679 Y227.248 E243.42126
G0 F9000 X171.679 Y218.032
G1 F3600 X178.319 Y216.253 E243.6499
G0 F9000 X178.32 Y205.604
G1 F3600 X171.679 Y198.964 E243.96225
G0 F9000 X171.679 Y197.326
G1 F3600 X178.319 Y195.547 E244.19089
G0 F9000 X171.679 Y184.66
G1 F3600 X178.319 Y159.879 E245.04418
G0 F9000 X178.319 Y154.136
G1 F3600 X171.679 Y155.915 E245.27282
G0 F9000 X178.319 Y149.035
G1 F3600 X171.679 Y142.395 E245.58514
G0 F9000 X171.679 Y135.21
G1 F3600 X178.319 Y133.431 E245.81378
G0 F9000 X178.319 Y120.751
G1 F3600 X175.248 Y117.68 E245.95823
G1 F1440 E244.45823
G0 F9000 X171.679 Y170.679
G1 F1440 E245.95823
G1 F3600 X178.32 Y177.32 E246.2706
G0 F9000 X178.319 Y174.842
G1 F3600 X171.679 Y176.621 E246.49924
G0 F9000 X171.8 Y176.621
G1 F1440 E244.99924
;MESH:NONMESH
G0 F300 X171.8 Y176.621 Z1.2
G0 F9000 X178.4 Y232.4
;TIME_ELAPSED:370.445600
;LAYER:5
;TYPE:WALL-INNER
;MESH:diffuser_support.stl
G1 F1440 E246.49924
G1 F1800 X171.6 Y232.4 E246.72541
G1 X171.6 Y117.6 E250.54367
G1 X178.4 Y117.6 E250.76984
G1 X178.4 Y232.4 E254.5881
G0 F9000 X178.8 Y232.8
;TYPE:WALL-OUTER
G1 F1800 X171.2 Y232.8 E254.84088
G1 X171.2 Y117.2 E258.68575
G1 X178.8 Y117.2 E258.93853
G1 X178.8 Y232.8 E262.7834
G0 F9000 X178.53 Y232.53
G0 X176.949 Y232.319
;TYPE:FILL
G1 F3600 X171.679 Y227.049 E263.03128
G0 F9000 X171.679 Y218.178
G1 F3600 X178.319 Y216.399 E263.25992
G0 F9000 X178.32 Y205.405
G1 F3600 X171.679 Y198.764 E263.57229
G0 F9000 X171.679 Y197.472
G1 F3600 X178.319 Y195.693 E263.80093
G0 F9000 X171.679 Y184.115
G1 F3600 X178.319 Y159.334 E264.65422
G0 F9000 X178.319 Y154.282
G1 F3600 X171.679 Y156.061 E264.88286
G0 F9000 X178.319 Y148.836
G1 F3600 X171.679 Y142.195 E265.19521
G0 F9000 X171.68 Y135.355
G1 F3600 X178.319 Y133.577 E265.4238
G0 F9000 X178.319 Y120.551
G1 F3600 X175.448 Y117.68 E265.55885
G1 F1440 E264.05885
G0 F9000 X171.679 Y170.479
G1 F1440 E265.55885
G1 F3600 X178.32 Y177.121 E265.87124
G0 F9000 X178.319 Y174.988
G1 F3600 X171.679 Y176.767 E266.09988
G0 F9000 X171.8 Y176.767
G1 F1440 E264.59988
;MESH:NONMESH
G0 F300 X171.8 Y176.767 Z1.4
G0 F9000 X178.4 Y232.4
;TIME_ELAPSED:393.539589
;LAYER:6
;TYPE:WALL-INNER
;MESH:diffuser_support.stl
G1 F1440 E266.09988
G1 F1800 X171.6 Y232.4 E266.32605
G1 X171.6 Y117.6 E270.14431
G1 X178.4 Y117.6 E270.37048
G1 X178.4 Y232.4 E274.18874
G0 F9000 X178.8 Y232.8
;TYPE:WALL-OUTER
G1 F1800 X171.2 Y232.8 E274.44152
G1 X171.2 Y117.2 E278.28639
G1 X178.8 Y117.2 E278.53917
G1 X178.8 Y232.8 E282.38404
G0 F9000 X178.53 Y232.53
G0 X177.149 Y232.319
;TYPE:FILL
G1 F3600 X171.679 Y226.849 E282.64133
G0 F9000 X171.68 Y218.324
G1 F3600 X178.319 Y216.545 E282.86994
G0 F9000 X178.32 Y205.205
G1 F3600 X171.679 Y198.565 E283.18229
G0 F9000 X171.68 Y197.618
G1 F3600 X178.319 Y195.839 E283.41089
G0 F9000 X171.679 Y183.57
G1 F3600 X178.319 Y158.79 E284.26415
G0 F9000 X178.319 Y154.428
G1 F3600 X171.68 Y156.207 E284.49276
G0 F9000 X178.319 Y148.636
G1 F3600 X171.679 Y141.996 E284.80508
G0 F9000 X171.68 Y135.501
G1 F3600 X178.319 Y133.723 E285.03368
G0 F9000 X178.319 Y120.352
G1 F3600 X175.647 Y117.68 E285.15936
G1 F1440 E283.65936
G0 F9000 X171.679 Y170.28
G1 F1440 E285.15936
G1 F3600 X178.32 Y176.921 E285.47173
G0 F9000 X178.319 Y175.134
G1 F3600 X171.68 Y176.913 E285.70034
G0 F9000 X171.8 Y176.913
G1 F1440 E284.20034
;MESH:NONMESH
G0 F300 X171.8 Y176.913 Z1.6
G0 F9000 X178.4 Y232.4
;TIME_ELAPSED:416.591964
;LAYER:7
;TYPE:WALL-INNER
;MESH:diffuser_support.stl
G1 F1440 E285.70034
G1 F1800 X171.6 Y232.4 E285.92651
G1 X171.6 Y117.6 E289.74477
G1 X178.4 Y117.6 E289.97094
G1 X178.4 Y232.4 E293.7892
G0 F9000 X178.8 Y232.8
;TYPE:WALL-OUTER
G1 F1800 X171.2 Y232.8 E294.04198
G1 X171.2 Y117.2 E297.88685
G1 X178.8 Y117.2 E298.13963
G1 X178.8 Y232.8 E301.9845
G0 F9000 X178.53 Y232.53
G0 X177.35 Y232.319
;TYPE:FILL
G1 F3600 X171.679 Y226.648 E302.25125
G0 F9000 X171.68 Y218.471
G1 F3600 X178.319 Y216.692 E302.47985
G0 F9000 X178.32 Y205.005
G1 F3600 X171.679 Y198.364 E302.79222
G0 F9000 X171.68 Y197.765
G1 F3600 X178.319 Y195.986 E303.02083
G0 F9000 X171.679 Y183.022
G1 F3600 X178.319 Y158.241 E303.87412
G0 F9000 X178.319 Y154.575
G1 F3600 X171.68 Y156.354 E304.10272
G0 F9000 X178.319 Y148.435
G1 F3600 X171.679 Y141.795 E304.41505
G0 F9000 X171.68 Y135.648
G1 F3600 X178.319 Y133.87 E304.64365
G0 F9000 X178.319 Y120.151
G1 F3600 X175.848 Y117.68 E304.75987
G1 F1440 E303.25987
G0 F9000 X171.679 Y170.079
G1 F1440 E304.75987
G1 F3600 X178.32 Y176.72 E305.07225
G0 F9000 X178.319 Y175.281
G1 F3600 X171.68 Y177.06 E305.30085
G0 F9000 X171.8 Y177.06
G1 F1440 E303.80085
;MESH:NONMESH
G0 F300 X171.8 Y177.06 Z1.8
G0 F9000 X178.4 Y232.4
;TIME_ELAPSED:439.596946
;LAYER:8
;TYPE:WALL-INNER
;MESH:diffuser_support.stl
G1 F1440 E305.30085
G1 F1800 X171.6 Y232.4 E305.52702
G1 X171.6 Y117.6 E309.34528
G1 X178.4 Y117.6 E309.57145
G1 X178.4 Y232.4 E313.38972
G0 F9000 X178.8 Y232.8
;TYPE:WALL-OUTER
G1 F1800 X171.2 Y232.8 E313.64249
G1 X171.2 Y117.2 E317.48736
G1 X178.8 Y117.2 E317.74014
G1 X178.8 Y232.8 E321.58501
G0 F9000 X178.53 Y232.53
G0 X178.29 Y232.01
G0 X178.01 Y232.01
;TYPE:SKIN
G1 F1800 X171.99 Y232.01 E321.78524
G1 X171.99 Y117.99 E325.57756
G1 X178.01 Y117.99 E325.77778
G1 X178.01 Y232.01 E329.57011
G0 F9000 X178.29 Y232.01
G0 X172.452 Y232.29
G0 X172.452 Y231.848
G1 F1800 X172.149 Y231.546 E329.58433
G0 F9000 X172.149 Y230.98
G1 F1800 X173.017 Y231.848 E329.62516
G0 F9000 X173.583 Y231.848
G1 F1800 X172.149 Y230.414 E329.69261
G0 F9000 X172.149 Y229.849
G1 F1800 X174.149 Y231.848 E329.78666
G0 F9000 X174.714 Y231.848
G1 F1800 X172.149 Y229.283 E329.90731
G0 F9000 X172.149 Y228.717
G1 F1800 X175.28 Y231.848 E330.05459
G0 F9000 X175.846 Y231.848
G1 F1800 X172.149 Y228.152 E330.22846
G0 F9000 X172.149 Y227.586
G1 F1800 X176.411 Y231.848 E330.42893
G0 F9000 X176.977 Y231.848
G1 F1800 X172.149 Y227.02 E330.65602
G0 F9000 X172.149 Y226.455
G1 F1800 X177.543 Y231.848 E330.90972
G0 F9000 X177.85 Y231.59
G1 F1800 X172.149 Y225.889 E331.17788
G0 F9000 X172.149 Y225.323
G1 F1800 X177.85 Y231.024 E331.44603
G0 F9000 X177.85 Y230.458
G1 F1800 X172.149 Y224.758 E331.71417
G0 F9000 X172.149 Y224.192
G1 F1800 X177.85 Y229.893 E331.98232
G0 F9000 X177.85 Y229.327
G1 F1800 X172.149 Y223.626 E332.25048
G0 F9000 X172.149 Y223.061
G1 F1800 X177.85 Y228.761 E332.51862
G0 F9000 X177.85 Y228.196
G1 F1800 X172.149 Y222.495 E332.78677
G0 F9000 X172.149 Y221.929
G1 F1800 X177.85 Y227.63 E333.05493
G0 F9000 X177.85 Y227.064
G1 F1800 X172.149 Y221.364 E333.32306
G0 F9000 X172.149 Y220.798
G1 F1800 X177.85 Y226.499 E333.59122
G0 F9000 X177.85 Y225.933
G1 F1800 X172.149 Y220.232 E333.85938
G0 F9000 X172.149 Y219.666
G1 F1800 X177.85 Y225.367 E334.12754
G0 F9000 X177.85 Y224.801
G1 F1800 X172.149 Y219.101 E334.39567
G0 F9000 X172.149 Y218.535
G1 F1800 X177.85 Y224.236 E334.66383
G0 F9000 X177.85 Y223.67
G1 F1800 X172.149 Y217.969 E334.93199
G0 F9000 X172.149 Y217.404
G1 F1800 X177.85 Y223.104 E335.20012
G0 F9000 X177.85 Y222.539
G1 F1800 X172.149 Y216.838 E335.46828
G0 F9000 X172.149 Y216.272
G1 F1800 X177.85 Y221.973 E335.73644
G0 F9000 X177.85 Y221.407
G1 F1800 X172.149 Y215.707 E336.00457
G0 F9000 X172.149 Y215.141
G1 F1800 X177.85 Y220.842 E336.27273
G0 F9000 X177.85 Y220.276
G1 F1800 X172.149 Y214.575 E336.54089
G0 F9000 X172.149 Y214.01
G1 F1800 X177.85 Y219.71 E336.80902
G0 F9000 X177.85 Y219.145
G1 F1800 X172.149 Y213.444 E337.07718
G0 F9000 X172.149 Y212.878
G1 F1800 X177.85 Y218.579 E337.34533
G0 F9000 X177.85 Y218.013
G1 F1800 X172.149 Y212.313 E337.61347
G0 F9000 X172.149 Y211.747
G1 F1800 X177.85 Y217.448 E337.88163
G0 F9000 X177.85 Y216.882
G1 F1800 X172.149 Y211.181 E338.14978
G0 F9000 X172.149 Y210.615
G1 F1800 X177.85 Y216.316 E338.41794
G0 F9000 X177.85 Y215.751
G1 F1800 X172.149 Y210.05 E338.6861
G0 F9000 X172.149 Y209.484
G1 F1800 X177.85 Y215.185 E338.95426
G0 F9000 X177.85 Y214.619
G1 F1800 X172.149 Y208.918 E339.22241
G0 F9000 X172.149 Y208.353
G1 F1800 X177.85 Y214.053 E339.49055
G0 F9000 X177.85 Y213.488
G1 F1800 X172.149 Y207.787 E339.75871
G0 F9000 X172.149 Y207.221
G1 F1800 X177.85 Y212.922 E340.02686
G0 F9000 X177.85 Y212.356
G1 F1800 X172.149 Y206.656 E340.295
G0 F9000 X172.149 Y206.09
G1 F1800 X177.85 Y211.791 E340.56315
G0 F9000 X177.85 Y211.225
G1 F1800 X172.149 Y205.524 E340.83131
G0 F9000 X172.149 Y204.959
G1 F1800 X177.85 Y210.659 E341.09945
G0 F9000 X177.85 Y210.094
G1 F1800 X172.149 Y204.393 E341.3676
G0 F9000 X172.149 Y203.827
G1 F1800 X177.85 Y209.528 E341.63576
G0 F9000 X177.85 Y208.962
G1 F1800 X172.149 Y203.262 E341.9039
G0 F9000 X172.149 Y202.696
G1 F1800 X177.85 Y208.397 E342.17205
G0 F9000 X177.85 Y207.831
G1 F1800 X172.149 Y202.13 E342.44021
G0 F9000 X172.149 Y201.565
G1 F1800 X177.85 Y207.265 E342.70834
G0 F9000 X177.85 Y206.7
G1 F1800 X172.149 Y200.999 E342.9765
G0 F9000 X172.149 Y200.433
G1 F1800 X177.85 Y206.134 E343.24466
G0 F9000 X177.85 Y205.568
G1 F1800 X172.149 Y199.867 E343.51282
G0 F9000 X172.149 Y199.302
G1 F1800 X177.85 Y205.002 E343.78095
G0 F9000 X177.85 Y204.437
G1 F1800 X172.149 Y198.736 E344.04911
G0 F9000 X172.149 Y198.17
G1 F1800 X177.85 Y203.871 E344.31727
G0 F9000 X177.85 Y203.305
G1 F1800 X172.149 Y197.605 E344.5854
G0 F9000 X172.149 Y197.039
G1 F1800 X177.85 Y202.74 E344.85356
G0 F9000 X177.85 Y202.174
G1 F1800 X172.149 Y196.473 E345.12172
G0 F9000 X172.149 Y195.908
G1 F1800 X177.85 Y201.608 E345.38985
G0 F9000 X177.85 Y201.043
G1 F1800 X172.149 Y195.342 E345.65801
G0 F9000 X172.149 Y194.776
G1 F1800 X177.85 Y200.477 E345.92616
G0 F9000 X177.85 Y199.911
G1 F1800 X172.149 Y194.211 E346.1943
G0 F9000 X172.149 Y193.645
G1 F1800 X177.85 Y199.346 E346.46246
G0 F9000 X177.85 Y198.78
G1 F1800 X172.149 Y193.079 E346.73061
G0 F9000 X172.149 Y192.514
G1 F1800 X177.85 Y198.214 E346.99875
G0 F9000 X177.85 Y197.649
G1 F1800 X172.149 Y191.948 E347.26691
G0 F9000 X172.149 Y191.382
G1 F1800 X177.85 Y197.083 E347.53506
G0 F9000 X177.85 Y196.517
G1 F1800 X172.149 Y190.817 E347.8032
G0 F9000 X172.149 Y190.251
G1 F1800 X177.85 Y195.952 E348.07135
G0 F9000 X177.85 Y195.386
G1 F1800 X172.149 Y189.685 E348.33951
G0 F9000 X172.149 Y189.119
G1 F1800 X177.85 Y194.82 E348.60767
G0 F9000 X177.85 Y194.254
G1 F1800 X172.149 Y188.554 E348.8758
G0 F9000 X172.149 Y187.988
G1 F1800 X177.85 Y193.689 E349.14396
G0 F9000 X177.85 Y193.123
G1 F1800 X172.149 Y187.422 E349.41212
G0 F9000 X172.149 Y186.857
G1 F1800 X177.85 Y192.557 E349.68025
G0 F9000 X177.85 Y191.992
G1 F1800 X172.149 Y186.291 E349.94841
G0 F9000 X172.149 Y185.725
G1 F1800 X177.85 Y191.426 E350.21657
G0 F9000 X177.85 Y190.86
G1 F1800 X172.149 Y185.16 E350.4847
G0 F9000 X172.149 Y184.594
G1 F1800 X177.85 Y190.295 E350.75286
G0 F9000 X177.85 Y189.729
G1 F1800 X172.149 Y184.028 E351.02102
G0 F9000 X172.149 Y183.463
G1 F1800 X177.85 Y189.163 E351.28915
G0 F9000 X177.85 Y188.598
G1 F1800 X172.149 Y182.897 E351.55731
G0 F9000 X172.149 Y182.331
G1 F1800 X177.85 Y188.032 E351.82547
G0 F9000 X177.85 Y187.466
G1 F1800 X172.149 Y181.766 E352.0936
G0 F9000 X172.149 Y181.2
G1 F1800 X177.85 Y186.901 E352.36176
G0 F9000 X177.85 Y186.335
G1 F1800 X172.149 Y180.634 E352.62992
G0 F9000 X172.149 Y180.068
G1 F1800 X177.85 Y185.769 E352.89807
G0 F9000 X177.85 Y185.203
G1 F1800 X172.149 Y179.503 E353.16621
G0 F9000 X172.149 Y178.937
G1 F1800 X177.85 Y184.638 E353.43436
G0 F9000 X177.85 Y184.072
G1 F1800 X172.149 Y178.371 E353.70252
G0 F9000 X172.149 Y177.806
G1 F1800 X177.85 Y183.506 E353.97066
G0 F9000 X177.85 Y182.941
G1 F1800 X172.149 Y177.24 E354.23881
G0 F9000 X172.149 Y176.674
G1 F1800 X177.85 Y182.375 E354.50697
G0 F9000 X177.85 Y181.809
G1 F1800 X172.149 Y176.109 E354.77511
G0 F9000 X172.149 Y175.543
G1 F1800 X177.85 Y181.244 E355.04326
G0 F9000 X177.85 Y180.678
G1 F1800 X172.149 Y174.977 E355.31142
G0 F9000 X172.149 Y174.412
G1 F1800 X177.85 Y180.112 E355.57955
G0 F9000 X177.85 Y179.547
G1 F1800 X172.149 Y173.846 E355.84771
G0 F9000 X172.149 Y173.28
G1 F1800 X177.85 Y178.981 E356.11587
G0 F9000 X177.85 Y178.415
G1 F1800 X172.149 Y172.715 E356.384
G0 F9000 X172.149 Y172.149
G1 F1800 X177.85 Y177.85 E356.65216
G0 F9000 X177.85 Y177.284
G1 F1800 X172.149 Y171.583 E356.92032
G0 F9000 X172.149 Y171.018
G1 F1800 X177.85 Y176.718 E357.18845
G0 F9000 X177.85 Y176.153
G1 F1800 X172.149 Y170.452 E357.45661
G0 F9000 X172.149 Y169.886
G1 F1800 X177.85 Y175.587 E357.72477
G0 F9000 X177.85 Y175.021
G1 F1800 X172.149 Y169.32 E357.99293
G0 F9000 X172.149 Y168.755
G1 F1800 X177.85 Y174.455 E358.26106
G0 F9000 X177.85 Y173.89
G1 F1800 X172.149 Y168.189 E358.52922
G0 F9000 X172.149 Y167.623
G1 F1800 X177.85 Y173.324 E358.79737
G0 F9000 X177.85 Y172.758
G1 F1800 X172.149 Y167.058 E359.06551
G0 F9000 X172.149 Y166.492
G1 F1800 X177.85 Y172.193 E359.33367
G0 F9000 X177.85 Y171.627
G1 F1800 X172.149 Y165.926 E359.60182
G0 F9000 X172.149 Y165.361
G1 F1800 X177.85 Y171.061 E359.86996
G0 F9000 X177.85 Y170.496
G1 F1800 X172.149 Y164.795 E360.13812
G0 F9000 X172.149 Y164.229
G1 F1800 X177.85 Y169.93 E360.40627
G0 F9000 X177.85 Y169.364
G1 F1800 X172.149 Y163.664 E360.67441
G0 F9000 X172.149 Y163.098
G1 F1800 X177.85 Y168.799 E360.94256
G0 F9000 X177.85 Y168.233
G1 F1800 X172.149 Y162.532 E361.21072
G0 F9000 X172.149 Y161.967
G1 F1800 X177.85 Y167.667 E361.47886
G0 F9000 X177.85 Y167.102
G1 F1800 X172.149 Y161.401 E361.74701
G0 F9000 X172.149 Y160.835
G1 F1800 X177.85 Y166.536 E362.01517
G0 F9000 X177.85 Y165.97
G1 F1800 X172.149 Y160.269 E362.28333
G0 F9000 X172.149 Y159.704
G1 F1800 X177.85 Y165.405 E362.55149
G0 F9000 X177.85 Y164.839
G1 F1800 X172.149 Y159.138 E362.81964
G0 F9000 X172.149 Y158.572
G1 F1800 X177.85 Y164.273 E363.0878
G0 F9000 X177.85 Y163.707
G1 F1800 X172.149 Y158.007 E363.35594
G0 F9000 X172.149 Y157.441
G1 F1800 X177.85 Y163.142 E363.62409
G0 F9000 X177.85 Y162.576
G1 F1800 X172.149 Y156.875 E363.89225
G0 F9000 X172.149 Y156.31
G1 F1800 X177.85 Y162.01 E364.16038
G0 F9000 X177.85 Y161.445
G1 F1800 X172.149 Y155.744 E364.42854
G0 F9000 X172.149 Y155.178
G1 F1800 X177.85 Y160.879 E364.6967
G0 F9000 X177.85 Y160.313
G1 F1800 X172.149 Y154.613 E364.96483
G0 F9000 X172.149 Y154.047
G1 F1800 X177.85 Y159.748 E365.23299
G0 F9000 X177.85 Y159.182
G1 F1800 X172.149 Y153.481 E365.50115
G0 F9000 X172.149 Y152.916
G1 F1800 X177.85 Y158.616 E365.76928
G0 F9000 X177.85 Y158.051
G1 F1800 X172.149 Y152.35 E366.03744
G0 F9000 X172.149 Y151.784
G1 F1800 X177.85 Y157.485 E366.3056
G0 F9000 X177.85 Y156.919
G1 F1800 X172.149 Y151.219 E366.57373
G0 F9000 X172.149 Y150.653
G1 F1800 X177.85 Y156.354 E366.84189
G0 F9000 X177.85 Y155.788
G1 F1800 X172.149 Y150.087 E367.11005
G0 F9000 X172.149 Y149.521
G1 F1800 X177.85 Y155.222 E367.37821
G0 F9000 X177.85 Y154.656
G1 F1800 X172.149 Y148.956 E367.64634
G0 F9000 X172.149 Y148.39
G1 F1800 X177.85 Y154.091 E367.9145
G0 F9000 X177.85 Y153.525
G1 F1800 X172.149 Y147.824 E368.18265
G0 F9000 X172.149 Y147.259
G1 F1800 X177.85 Y152.959 E368.45079
G0 F9000 X177.85 Y152.394
G1 F1800 X172.149 Y146.693 E368.71895
G0 F9000 X172.149 Y146.127
G1 F1800 X177.85 Y151.828 E368.9871
G0 F9000 X177.85 Y151.262
G1 F1800 X172.149 Y145.562 E369.25524
G0 F9000 X172.149 Y144.996
G1 F1800 X177.85 Y150.697 E369.5234
G0 F9000 X177.85 Y150.131
G1 F1800 X172.149 Y144.43 E369.79155
G0 F9000 X172.149 Y143.865
G1 F1800 X177.85 Y149.565 E370.05969
G0 F9000 X177.85 Y149
G1 F1800 X172.149 Y143.299 E370.32784
G0 F9000 X172.149 Y142.733
G1 F1800 X177.85 Y148.434 E370.596
G0 F9000 X177.85 Y147.868
G1 F1800 X172.149 Y142.168 E370.86414
G0 F9000 X172.149 Y141.602
G1 F1800 X177.85 Y147.303 E371.13229
G0 F9000 X177.85 Y146.737
G1 F1800 X172.149 Y141.036 E371.40045
G0 F9000 X172.149 Y140.471
G1 F1800 X177.85 Y146.171 E371.66858
G0 F9000 X177.85 Y145.606
G1 F1800 X172.149 Y139.905 E371.93674
G0 F9000 X172.149 Y139.339
G1 F1800 X177.85 Y145.04 E372.2049
G0 F9000 X177.85 Y144.474
G1 F1800 X172.149 Y138.773 E372.47306
G0 F9000 X172.149 Y138.208
G1 F1800 X177.85 Y143.908 E372.74119
G0 F9000 X177.85 Y143.343
G1 F1800 X172.149 Y137.642 E373.00935
G0 F9000 X172.149 Y137.076
G1 F1800 X177.85 Y142.777 E373.27751
G0 F9000 X177.85 Y142.211
G1 F1800 X172.149 Y136.511 E373.54564
G0 F9000 X172.149 Y135.945
G1 F1800 X177.85 Y141.646 E373.8138
G0 F9000 X177.85 Y141.08
G1 F1800 X172.149 Y135.379 E374.08196
G0 F9000 X172.149 Y134.814
G1 F1800 X177.85 Y140.514 E374.35009
G0 F9000 X177.85 Y139.949
G1 F1800 X172.149 Y134.248 E374.61825
G0 F9000 X172.149 Y133.682
G1 F1800 X177.85 Y139.383 E374.88641
G0 F9000 X177.85 Y138.817
G1 F1800 X172.149 Y133.117 E375.15454
G0 F9000 X172.149 Y132.551
G1 F1800 X177.85 Y138.252 E375.4227
G0 F9000 X177.85 Y137.686
G1 F1800 X172.149 Y131.985 E375.69085
G0 F9000 X172.149 Y131.42
G1 F1800 X177.85 Y137.12 E375.95899
G0 F9000 X177.85 Y136.555
G1 F1800 X172.149 Y130.854 E376.22715
G0 F9000 X172.149 Y130.288
G1 F1800 X177.85 Y135.989 E376.4953
G0 F9000 X177.85 Y135.423
G1 F1800 X172.149 Y129.722 E376.76346
G0 F9000 X172.149 Y129.157
G1 F1800 X177.85 Y134.857 E377.0316
G0 F9000 X177.85 Y134.292
G1 F1800 X172.149 Y128.591 E377.29975
G0 F9000 X172.149 Y128.025
G1 F1800 X177.85 Y133.726 E377.56791
G0 F9000 X177.85 Y133.16
G1 F1800 X172.149 Y127.46 E377.83604
G0 F9000 X172.149 Y126.894
G1 F1800 X177.85 Y132.595 E378.1042
G0 F9000 X177.85 Y132.029
G1 F1800 X172.149 Y126.328 E378.37236
G0 F9000 X172.149 Y125.763
G1 F1800 X177.85 Y131.463 E378.64049
G0 F9000 X177.85 Y130.898
G1 F1800 X172.149 Y125.197 E378.90865
G0 F9000 X172.149 Y124.631
G1 F1800 X177.85 Y130.332 E379.17681
G0 F9000 X177.85 Y129.766
G1 F1800 X172.149 Y124.066 E379.44494
G0 F9000 X172.149 Y123.5
G1 F1800 X177.85 Y129.201 E379.7131
G0 F9000 X177.85 Y128.635
G1 F1800 X172.149 Y122.934 E379.98126
G0 F9000 X172.149 Y122.369
G1 F1800 X177.85 Y128.069 E380.24939
G0 F9000 X177.85 Y127.504
G1 F1800 X172.149 Y121.803 E380.51755
G0 F9000 X172.149 Y121.237
G1 F1800 X177.85 Y126.938 E380.78571
G0 F9000 X177.85 Y126.372
G1 F1800 X172.149 Y120.672 E381.05384
G0 F9000 X172.149 Y120.106
G1 F1800 X177.85 Y125.807 E381.322
G0 F9000 X177.85 Y125.241
G1 F1800 X172.149 Y119.54 E381.59016
G0 F9000 X172.149 Y118.974
G1 F1800 X177.85 Y124.675 E381.85831
G0 F9000 X177.85 Y124.109
G1 F1800 X172.149 Y118.409 E382.12645
G0 F9000 X172.456 Y118.15
G1 F1800 X177.85 Y123.544 E382.38016
G0 F9000 X177.85 Y122.978
G1 F1800 X173.021 Y118.15 E382.60728
G0 F9000 X173.587 Y118.15
G1 F1800 X177.85 Y122.412 E382.80778
G0 F9000 X177.85 Y121.847
G1 F1800 X174.153 Y118.15 E382.98167
G0 F9000 X174.719 Y118.15
G1 F1800 X177.85 Y121.281 E383.12895
G0 F9000 X177.85 Y120.715
G1 F1800 X175.284 Y118.15 E383.24962
G0 F9000 X175.85 Y118.15
G1 F1800 X177.85 Y120.15 E383.34369
G0 F9000 X177.85 Y119.584
G1 F1800 X176.416 Y118.15 E383.41114
G0 F9000 X176.981 Y118.15
G1 F1800 X177.85 Y119.018 E383.452
G0 F9000 X177.85 Y118.453
G1 F1800 X177.547 Y118.15 E383.46625
G0 F9000 X177.547 Y117.8
G1 F1440 E381.96625
;MESH:NONMESH
G0 F300 X177.547 Y117.8 Z2
G0 F9000 X177.547 Y117.71
G0 X178.218 Y117.782
G0 X178.4 Y232.4
;TIME_ELAPSED:538.762853
;LAYER:9
;TYPE:WALL-INNER
;MESH:diffuser_support.stl
G1 F1440 E383.46625
G1 F1800 X171.6 Y232.4 E383.69242
G1 X171.6 Y117.6 E387.51068
G1 X178.4 Y117.6 E387.73685
G1 X178.4 Y232.4 E391.55511
G0 F9000 X178.8 Y232.8
;TYPE:WALL-OUTER
G1 F1800 X171.2 Y232.8 E391.80789
G1 X171.2 Y117.2 E395.65276
G1 X178.8 Y117.2 E395.90554
G1 X178.8 Y232.8 E399.75041
G0 F9000 X178.53 Y232.53
G0 X178.29 Y232.01
G0 X178.01 Y232.01
;TYPE:SKIN
G1 F1800 X171.99 Y232.01 E399.95064
G1 X171.99 Y117.99 E403.74296
G1 X178.01 Y117.99 E403.94318
G1 X178.01 Y232.01 E407.7355
G0 F9000 X177.706 Y231.849
G1 F1800 X177.849 Y231.706 E407.74223
G0 F9000 X177.849 Y231.141
G1 F1800 X177.14 Y231.849 E407.77555
G0 F9000 X176.575 Y231.849
G1 F1800 X177.849 Y230.575 E407.83548
G0 F9000 X177.849 Y230.009
G1 F1800 X176.009 Y231.849 E407.92203
G0 F9000 X175.443 Y231.849
G1 F1800 X177.849 Y229.444 E408.03518
G0 F9000 X177.849 Y228.878
G1 F1800 X174.878 Y231.849 E408.17492
G0 F9000 X174.312 Y231.849
G1 F1800 X177.849 Y228.312 E408.34129
G0 F9000 X177.849 Y227.747
G1 F1800 X173.746 Y231.849 E408.53426
G0 F9000 X173.181 Y231.849
G1 F1800 X177.849 Y227.181 E408.75383
G0 F9000 X177.849 Y226.615
G1 F1800 X172.615 Y231.849 E409.00002
G0 F9000 X172.15 Y231.749
G1 F1800 X177.849 Y226.05 E409.26808
G0 F9000 X177.849 Y225.484
G1 F1800 X172.15 Y231.183 E409.53615
G0 F9000 X172.15 Y230.617
G1 F1800 X177.849 Y224.918 E409.80421
G0 F9000 X177.849 Y224.352
G1 F1800 X172.15 Y230.052 E410.0723
G0 F9000 X172.15 Y229.486
G1 F1800 X177.849 Y223.787 E410.34036
G0 F9000 X177.849 Y223.221
G1 F1800 X172.15 Y228.92 E410.60842
G0 F9000 X172.15 Y228.355
G1 F1800 X177.849 Y222.655 E410.87651
G0 F9000 X177.849 Y222.09
G1 F1800 X172.15 Y227.789 E411.14458
G0 F9000 X172.15 Y227.223
G1 F1800 X177.849 Y221.524 E411.41264
G0 F9000 X177.849 Y220.958
G1 F1800 X172.15 Y226.658 E411.68073
G0 F9000 X172.15 Y226.092
G1 F1800 X177.849 Y220.393 E411.94879
G0 F9000 X177.849 Y219.827
G1 F1800 X172.15 Y225.526 E412.21685
G0 F9000 X172.15 Y224.961
G1 F1800 X177.849 Y219.261 E412.48494
G0 F9000 X177.849 Y218.696
G1 F1800 X172.15 Y224.395 E412.753
G0 F9000 X172.15 Y223.829
G1 F1800 X177.849 Y218.13 E413.02107
G0 F9000 X177.849 Y217.564
G1 F1800 X172.15 Y223.264 E413.28915
G0 F9000 X172.15 Y222.698
G1 F1800 X177.849 Y216.999 E413.55722
G0 F9000 X177.849 Y216.433
G1 F1800 X172.15 Y222.132 E413.82528
G0 F9000 X172.15 Y221.566
G1 F1800 X177.849 Y215.867 E414.09334
G0 F9000 X177.849 Y215.301
G1 F1800 X172.15 Y221.001 E414.36143
G0 F9000 X172.15 Y220.435
G1 F1800 X177.849 Y214.736 E414.62949
G0 F9000 X177.849 Y214.17
G1 F1800 X172.15 Y219.869 E414.89756
G0 F9000 X172.15 Y219.304
G1 F1800 X177.849 Y213.604 E415.16565
G0 F9000 X177.849 Y213.039
G1 F1800 X172.15 Y218.738 E415.43371
G0 F9000 X172.15 Y218.172
G1 F1800 X177.849 Y212.473 E415.70177
G0 F9000 X177.849 Y211.907
G1 F1800 X172.15 Y217.607 E415.96986
G0 F9000 X172.15 Y217.041
G1 F1800 X177.849 Y211.342 E416.23792
G0 F9000 X177.849 Y210.776
G1 F1800 X172.15 Y216.475 E416.50599
G0 F9000 X172.15 Y215.91
G1 F1800 X177.849 Y210.21 E416.77407
G0 F9000 X177.849 Y209.645
G1 F1800 X172.15 Y215.344 E417.04214
G0 F9000 X172.15 Y214.778
G1 F1800 X177.849 Y209.079 E417.3102
G0 F9000 X177.849 Y208.513
G1 F1800 X172.15 Y214.213 E417.57829
G0 F9000 X172.15 Y213.647
G1 F1800 X177.849 Y207.948 E417.84635
G0 F9000 X177.849 Y207.382
G1 F1800 X172.15 Y213.081 E418.11441
G0 F9000 X172.15 Y212.515
G1 F1800 X177.849 Y206.816 E418.38248
G0 F9000 X177.849 Y206.251
G1 F1800 X172.15 Y211.95 E418.65054
G0 F9000 X172.15 Y211.384
G1 F1800 X177.849 Y205.685 E418.9186
G0 F9000 X177.849 Y205.119
G1 F1800 X172.15 Y210.818 E419.18667
G0 F9000 X172.15 Y210.253
G1 F1800 X177.849 Y204.553 E419.45476
G0 F9000 X177.849 Y203.988
G1 F1800 X172.15 Y209.687 E419.72282
G0 F9000 X172.15 Y209.121
G1 F1800 X177.849 Y203.422 E419.99088
G0 F9000 X177.849 Y202.856
G1 F1800 X172.15 Y208.556 E420.25897
G0 F9000 X172.15 Y207.99
G1 F1800 X177.849 Y202.291 E420.52703
G0 F9000 X177.849 Y201.725
G1 F1800 X172.15 Y207.424 E420.7951
G0 F9000 X172.15 Y206.859
G1 F1800 X177.849 Y201.159 E421.06318
G0 F9000 X177.849 Y200.594
G1 F1800 X172.15 Y206.293 E421.33125
G0 F9000 X172.15 Y205.727
G1 F1800 X177.849 Y200.028 E421.59931
G0 F9000 X177.849 Y199.462
G1 F1800 X172.15 Y205.162 E421.8674
G0 F9000 X172.15 Y204.596
G1 F1800 X177.849 Y198.897 E422.13546
G0 F9000 X177.849 Y198.331
G1 F1800 X172.15 Y204.03 E422.40352
G0 F9000 X172.15 Y203.465
G1 F1800 X177.849 Y197.765 E422.67161
G0 F9000 X177.849 Y197.2
G1 F1800 X172.15 Y202.899 E422.93967
G0 F9000 X172.15 Y202.333
G1 F1800 X177.849 Y196.634 E423.20774
G0 F9000 X177.849 Y196.068
G1 F1800 X172.15 Y201.767 E423.4758
G0 F9000 X172.15 Y201.202
G1 F1800 X177.849 Y195.503 E423.74387
G0 F9000 X177.849 Y194.937
G1 F1800 X172.15 Y200.636 E424.01193
G0 F9000 X172.15 Y200.07
G1 F1800 X177.849 Y194.371 E424.27999
G0 F9000 X177.849 Y193.805
G1 F1800 X172.15 Y199.505 E424.54808
G0 F9000 X172.15 Y198.939
G1 F1800 X177.849 Y193.24 E424.81614
G0 F9000 X177.849 Y192.674
G1 F1800 X172.15 Y198.373 E425.08421
G0 F9000 X172.15 Y197.808
G1 F1800 X177.849 Y192.108 E425.35229
G0 F9000 X177.849 Y191.543
G1 F1800 X172.15 Y197.242 E425.62036
G0 F9000 X172.15 Y196.676
G1 F1800 X177.849 Y190.977 E425.88842
G0 F9000 X177.849 Y190.411
G1 F1800 X172.15 Y196.111 E426.15651
G0 F9000 X172.15 Y195.545
G1 F1800 X177.849 Y189.846 E426.42457
G0 F9000 X177.849 Y189.28
G1 F1800 X172.15 Y194.979 E426.69263
G0 F9000 X172.15 Y194.414
G1 F1800 X177.849 Y188.714 E426.96072
G0 F9000 X177.849 Y188.149
G1 F1800 X172.15 Y193.848 E427.22878
G0 F9000 X172.15 Y193.282
G1 F1800 X177.849 Y187.583 E427.49685
G0 F9000 X177.849 Y187.017
G1 F1800 X172.15 Y192.717 E427.76493
G0 F9000 X172.15 Y192.151
G1 F1800 X177.849 Y186.452 E428.033
G0 F9000 X177.849 Y185.886
G1 F1800 X172.15 Y191.585 E428.30106
G0 F9000 X172.15 Y191.019
G1 F1800 X177.849 Y185.32 E428.56913
G0 F9000 X177.849 Y184.754
G1 F1800 X172.15 Y190.454 E428.83721
G0 F9000 X172.15 Y189.888
G1 F1800 X177.849 Y184.189 E429.10528
G0 F9000 X177.849 Y183.623
G1 F1800 X172.15 Y189.322 E429.37334
G0 F9000 X172.15 Y188.757
G1 F1800 X177.849 Y183.057 E429.64143
G0 F9000 X177.849 Y182.492
G1 F1800 X172.15 Y188.191 E429.90949
G0 F9000 X172.15 Y187.625
G1 F1800 X177.849 Y181.926 E430.17755
G0 F9000 X177.849 Y181.36
G1 F1800 X172.15 Y187.06 E430.44564
G0 F9000 X172.15 Y186.494
G1 F1800 X177.849 Y180.795 E430.7137
G0 F9000 X177.849 Y180.229
G1 F1800 X172.15 Y185.928 E430.98177
G0 F9000 X172.15 Y185.363
G1 F1800 X177.849 Y179.663 E431.24985
G0 F9000 X177.849 Y179.098
G1 F1800 X172.15 Y184.797 E431.51792
G0 F9000 X172.15 Y184.231
G1 F1800 X177.849 Y178.532 E431.78598
G0 F9000 X177.849 Y177.966
G1 F1800 X172.15 Y183.666 E432.05407
G0 F9000 X172.15 Y183.1
G1 F1800 X177.849 Y177.401 E432.32213
G0 F9000 X177.849 Y176.835
G1 F1800 X172.15 Y182.534 E432.5902
G0 F9000 X172.15 Y181.968
G1 F1800 X177.849 Y176.269 E432.85826
G0 F9000 X177.849 Y175.704
G1 F1800 X172.15 Y181.403 E433.12632
G0 F9000 X172.15 Y180.837
G1 F1800 X177.849 Y175.138 E433.39439
G0 F9000 X177.849 Y174.572
G1 F1800 X172.15 Y180.271 E433.66245
G0 F9000 X172.15 Y179.706
G1 F1800 X177.849 Y174.006 E433.93054
G0 F9000 X177.849 Y173.441
G1 F1800 X172.15 Y179.14 E434.1986
G0 F9000 X172.15 Y178.574
G1 F1800 X177.849 Y172.875 E434.46666
G0 F9000 X177.849 Y172.309
G1 F1800 X172.15 Y178.009 E434.73475
G0 F9000 X172.15 Y177.443
G1 F1800 X177.849 Y171.744 E435.00281
G0 F9000 X177.849 Y171.178
G1 F1800 X172.15 Y176.877 E435.27088
G0 F9000 X172.15 Y176.312
G1 F1800 X177.849 Y170.612 E435.53896
G0 F9000 X177.849 Y170.047
G1 F1800 X172.15 Y175.746 E435.80703
G0 F9000 X172.15 Y175.18
G1 F1800 X177.849 Y169.481 E436.07509
G0 F9000 X177.849 Y168.915
G1 F1800 X172.15 Y174.615 E436.34318
G0 F9000 X172.15 Y174.049
G1 F1800 X177.849 Y168.35 E436.61124
G0 F9000 X177.849 Y167.784
G1 F1800 X172.15 Y173.483 E436.87931
G0 F9000 X172.15 Y172.918
G1 F1800 X177.849 Y167.218 E437.14739
G0 F9000 X177.849 Y166.653
G1 F1800 X172.15 Y172.352 E437.41546
G0 F9000 X172.15 Y171.786
G1 F1800 X177.849 Y166.087 E437.68352
G0 F9000 X177.849 Y165.521
G1 F1800 X172.15 Y171.22 E437.95158
G0 F9000 X172.15 Y170.655
G1 F1800 X177.849 Y164.955 E438.21967
G0 F9000 X177.849 Y164.39
G1 F1800 X172.15 Y170.089 E438.48773
G0 F9000 X172.15 Y169.523
G1 F1800 X177.849 Y163.824 E438.7558
G0 F9000 X177.849 Y163.258
G1 F1800 X172.15 Y168.958 E439.02388
G0 F9000 X172.15 Y168.392
G1 F1800 X177.849 Y162.693 E439.29195
G0 F9000 X177.849 Y162.127
G1 F1800 X172.15 Y167.826 E439.56001
G0 F9000 X172.15 Y167.261
G1 F1800 X177.849 Y161.561 E439.8281
G0 F9000 X177.849 Y160.996
G1 F1800 X172.15 Y166.695 E440.09616
G0 F9000 X172.15 Y166.129
G1 F1800 X177.849 Y160.43 E440.36422
G0 F9000 X177.849 Y159.864
G1 F1800 X172.15 Y165.564 E440.63231
G0 F9000 X172.15 Y164.998
G1 F1800 X177.849 Y159.299 E440.90038
G0 F9000 X177.849 Y158.733
G1 F1800 X172.15 Y164.432 E441.16844
G0 F9000 X172.15 Y163.867
G1 F1800 X177.849 Y158.167 E441.43653
G0 F9000 X177.849 Y157.602
G1 F1800 X172.15 Y163.301 E441.70459
G0 F9000 X172.15 Y162.735
G1 F1800 X177.849 Y157.036 E441.97265
G0 F9000 X177.849 Y156.47
G1 F1800 X172.15 Y162.169 E442.24072
G0 F9000 X172.15 Y161.604
G1 F1800 X177.849 Y155.905 E442.50878
G0 F9000 X177.849 Y155.339
G1 F1800 X172.15 Y161.038 E442.77684
G0 F9000 X172.15 Y160.472
G1 F1800 X177.849 Y154.773 E443.04491
G0 F9000 X177.849 Y154.207
G1 F1800 X172.15 Y159.907 E443.31299
G0 F9000 X172.15 Y159.341
G1 F1800 X177.849 Y153.642 E443.58106
G0 F9000 X177.849 Y153.076
G1 F1800 X172.15 Y158.775 E443.84912
G0 F9000 X172.15 Y158.21
G1 F1800 X177.849 Y152.51 E444.11721
G0 F9000 X177.849 Y151.945
G1 F1800 X172.15 Y157.644 E444.38527
G0 F9000 X172.15 Y157.078
G1 F1800 X177.849 Y151.379 E444.65333
G0 F9000 X177.849 Y150.813
G1 F1800 X172.15 Y156.513 E444.92142
G0 F9000 X172.15 Y155.947
G1 F1800 X177.849 Y150.248 E445.18948
G0 F9000 X177.849 Y149.682
G1 F1800 X172.15 Y155.381 E445.45755
G0 F9000 X172.15 Y154.816
G1 F1800 X177.849 Y149.116 E445.72564
G0 F9000 X177.849 Y148.551
G1 F1800 X172.15 Y154.25 E445.9937
G0 F9000 X172.15 Y153.684
G1 F1800 X177.849 Y147.985 E446.26176
G0 F9000 X177.849 Y147.419
G1 F1800 X172.15 Y153.119 E446.52985
G0 F9000 X172.15 Y152.553
G1 F1800 X177.849 Y146.854 E446.79791
G0 F9000 X177.849 Y146.288
G1 F1800 X172.15 Y151.987 E447.06598
G0 F9000 X172.15 Y151.421
G1 F1800 X177.849 Y145.722 E447.33404
G0 F9000 X177.849 Y145.157
G1 F1800 X172.15 Y150.856 E447.6021
G0 F9000 X172.15 Y150.29
G1 F1800 X177.849 Y144.591 E447.87017
G0 F9000 X177.849 Y144.025
G1 F1800 X172.15 Y149.724 E448.13823
G0 F9000 X172.15 Y149.159
G1 F1800 X177.849 Y143.459 E448.40632
G0 F9000 X177.849 Y142.894
G1 F1800 X172.15 Y148.593 E448.67438
G0 F9000 X172.15 Y148.027
G1 F1800 X177.849 Y142.328 E448.94244
G0 F9000 X177.849 Y141.762
G1 F1800 X172.15 Y147.462 E449.21053
G0 F9000 X172.15 Y146.896
G1 F1800 X177.849 Y141.197 E449.47859
G0 F9000 X177.849 Y140.631
G1 F1800 X172.15 Y146.33 E449.74666
G0 F9000 X172.15 Y145.765
G1 F1800 X177.849 Y140.065 E450.01475
G0 F9000 X177.849 Y139.5
G1 F1800 X172.15 Y145.199 E450.28281
G0 F9000 X172.15 Y144.633
G1 F1800 X177.849 Y138.934 E450.55087
G0 F9000 X177.849 Y138.368
G1 F1800 X172.15 Y144.068 E450.81896
G0 F9000 X172.15 Y143.502
G1 F1800 X177.849 Y137.803 E451.08702
G0 F9000 X177.849 Y137.237
G1 F1800 X172.15 Y142.936 E451.35509
G0 F9000 X172.15 Y142.371
G1 F1800 X177.849 Y136.671 E451.62317
G0 F9000 X177.849 Y136.106
G1 F1800 X172.15 Y141.805 E451.89124
G0 F9000 X172.15 Y141.239
G1 F1800 X177.849 Y135.54 E452.1593
G0 F9000 X177.849 Y134.974
G1 F1800 X172.15 Y140.673 E452.42736
G0 F9000 X172.15 Y140.108
G1 F1800 X177.849 Y134.408 E452.69545
G0 F9000 X177.849 Y133.843
G1 F1800 X172.15 Y139.542 E452.96351
G0 F9000 X172.15 Y138.976
G1 F1800 X177.849 Y133.277 E453.23158
G0 F9000 X177.849 Y132.711
G1 F1800 X172.15 Y138.411 E453.49966
G0 F9000 X172.15 Y137.845
G1 F1800 X177.849 Y132.146 E453.76773
G0 F9000 X177.849 Y131.58
G1 F1800 X172.15 Y137.279 E454.03579
G0 F9000 X172.15 Y136.714
G1 F1800 X177.849 Y131.014 E454.30388
G0 F9000 X177.849 Y130.449
G1 F1800 X172.15 Y136.148 E454.57194
G0 F9000 X172.15 Y135.582
G1 F1800 X177.849 Y129.883 E454.84001
G0 F9000 X177.849 Y129.317
G1 F1800 X172.15 Y135.017 E455.10809
G0 F9000 X172.15 Y134.451
G1 F1800 X177.849 Y128.752 E455.37616
G0 F9000 X177.849 Y128.186
G1 F1800 X172.15 Y133.885 E455.64422
G0 F9000 X172.15 Y133.32
G1 F1800 X177.849 Y127.62 E455.91231
G0 F9000 X177.849 Y127.055
G1 F1800 X172.15 Y132.754 E456.18037
G0 F9000 X172.15 Y132.188
G1 F1800 X177.849 Y126.489 E456.44843
G0 F9000 X177.849 Y125.923
G1 F1800 X172.15 Y131.622 E456.7165
G0 F9000 X172.15 Y131.057
G1 F1800 X177.849 Y125.358 E456.98456
G0 F9000 X177.849 Y124.792
G1 F1800 X172.15 Y130.491 E457.25262
G0 F9000 X172.15 Y129.925
G1 F1800 X177.849 Y124.226 E457.52069
G0 F9000 X177.849 Y123.66
G1 F1800 X172.15 Y129.36 E457.78877
G0 F9000 X172.15 Y128.794
G1 F1800 X177.849 Y123.095 E458.05684
G0 F9000 X177.849 Y122.529
G1 F1800 X172.15 Y128.228 E458.3249
G0 F9000 X172.15 Y127.663
G1 F1800 X177.849 Y121.963 E458.59299
G0 F9000 X177.849 Y121.398
G1 F1800 X172.15 Y127.097 E458.86105
G0 F9000 X172.15 Y126.531
G1 F1800 X177.849 Y120.832 E459.12912
G0 F9000 X177.849 Y120.266
G1 F1800 X172.15 Y125.966 E459.3972
G0 F9000 X172.15 Y125.4
G1 F1800 X177.849 Y119.701 E459.66527
G0 F9000 X177.849 Y119.135
G1 F1800 X172.15 Y124.834 E459.93333
G0 F9000 X172.15 Y124.269
G1 F1800 X177.849 Y118.569 E460.20142
G0 F9000 X177.703 Y118.149
G1 F1800 X172.15 Y123.703 E460.46264
G0 F9000 X172.15 Y123.137
G1 F1800 X177.138 Y118.149 E460.69726
G0 F9000 X176.572 Y118.149
G1 F1800 X172.15 Y122.572 E460.90528
G0 F9000 X172.15 Y122.006
G1 F1800 X176.006 Y118.149 E461.08668
G0 F9000 X175.44 Y118.149
G1 F1800 X172.15 Y121.44 E461.24145
G0 F9000 X172.15 Y120.874
G1 F1800 X174.875 Y118.149 E461.36963
G0 F9000 X174.309 Y118.149
G1 F1800 X172.15 Y120.309 E461.4712
G0 F9000 X172.15 Y119.743
G1 F1800 X173.743 Y118.149 E461.54616
G0 F9000 X173.178 Y118.149
G1 F1800 X172.15 Y119.177 E461.59451
G0 F9000 X172.15 Y118.612
G1 F1800 X172.612 Y118.149 E461.61626
G0 F9000 X172.612 Y117.8
;TIME_ELAPSED:636.410028
G1 F1440 E460.11626
M140 S0
M107
G91 ;Relative positioning
G1 E-2 F2700 ;Retract a bit
G1 E-2 Z0.2 F2400 ;Retract and raise Z
G1 X5 Y5 F3000 ;Wipe out
G1 Z10 ;Raise Z more
G90 ;Absolute positionning

G1 X0 Y350 ;Present print
M106 S0 ;Turn-off fan
M104 S0 ;Turn-off hotend
M140 S0 ;Turn-off bed

M84 X Y E ;Disable all steppers but Z

M82 ;absolute extrusion mode
M104 S0
;End of Gcode
;SETTING_3 {"global_quality": "[general]\\nversion = 4\\nname = Standard Quality
;SETTING_3  #2\\ndefinition = creality_base\\n\\n[metadata]\\nsetting_version = 
;SETTING_3 16\\nquality_type = standard\\ntype = quality_changes\\n\\n[values]\\
;SETTING_3 n\\n", "extruder_quality": ["[general]\\nversion = 4\\nname = Standar
;SETTING_3 d Quality #2\\ndefinition = creality_ender5plus\\n\\n[metadata]\\nset
;SETTING_3 ting_version = 16\\nquality_type = standard\\nposition = 0\\ntype = q
;SETTING_3 uality_changes\\n\\n[values]\\nbottom_layers = 2\\ninfill_line_distan
;SETTING_3 ce = 20\\ninfill_sparse_density = 0\\nmaterial_print_temperature = 20
;SETTING_3 5\\nretraction_amount = 1.5\\nretraction_speed = 24\\nspeed_print = 6
;SETTING_3 0\\nsupport_connect_zigzags = False\\nsupport_infill_rate = 5\\ntop_l
;SETTING_3 ayers = 2\\n\\n"]}
